,Month,Day,Time,Temp (°C),Temp Flag,Dew Point Temp (°C),Dew Point Temp Flag,Rel Hum (%),Rel Hum Flag,Wind Dir (10s deg),Wind Dir Flag,Wind Spd (km/h),Wind Spd Flag,Visibility (km),Visibility Flag,Stn Press (kPa),Stn Press Flag,Hmdx,Hmdx Flag,Wind Chill,Wind Chill Flag,Weather,Air density,Wind Spd (m/s),PowerProduction,Power (Watts),Power (MW)
0,1,1,00:00:00,4.3,,4.0,,98,,8.0,,11,,4.8,,98.49,,,,,,"Rain,Fog",1.2366586998716662,3.0555580000000004,0.0,0.0,0.0
1,1,1,01:00:00,5.1,,5.0,,99,,,M,4,,16.1,,98.47,,,,,,,1.2328527655224404,1.111112,0.0,0.0,0.0
2,1,1,02:00:00,5.9,,5.6,,98,,31.0,,28,,4.0,,98.57,,,,,,"Rain,Fog",1.2305667563895109,7.7777840000000005,1344892.219731245,1344892.219731245,1.344892219731245
3,1,1,03:00:00,3.3,,2.6,,95,,30.0,,34,,16.1,,98.98,,,,,,,1.2473068401605205,9.444452,2440721.707747115,2440721.707747115,2.4407217077471146
4,1,1,04:00:00,2.8,,1.2,,89,,30.0,,28,,16.1,,99.29,,,,,,,1.2534804391751584,7.7777840000000005,1369934.6918635352,1369934.6918635352,1.3699346918635351
5,1,1,05:00:00,3.2,,0.6,,83,,29.0,,24,,16.1,,99.66,,,,,,,1.256330382618847,6.666672,864660.8520080261,864660.8520080261,0.8646608520080261
6,1,1,06:00:00,2.7,,-0.2,,81,,32.0,,30,,16.1,,99.94,,,,,,,1.2621437051135227,8.333340000000002,1696605.1400918828,1696605.1400918828,1.6966051400918827
7,1,1,07:00:00,2.3,,-1.0,,79,,31.0,,24,,16.1,,100.21,,,,,,,1.267391336859774,6.666672,872273.478631005,872273.478631005,0.872273478631005
8,1,1,08:00:00,1.9,,-1.7,,77,,31.0,,15,,16.1,,100.52,,,,,,,1.2731608615380252,4.166670000000001,213926.8346680598,213926.8346680598,0.2139268346680598
9,1,1,09:00:00,1.5,,-2.5,,75,,30.0,,26,,16.1,,100.77,,,,,,,1.27818614009,7.222228,1118464.8924753182,1118464.8924753182,1.1184648924753182
10,1,1,10:00:00,1.0,,-3.0,,75,,33.0,,22,,16.1,,100.85,,,,,,,1.281533906499426,6.111116000000001,679369.9798295302,679369.9798295302,0.6793699798295302
11,1,1,11:00:00,-0.1,,-4.4,,73,,31.0,,24,,16.1,,100.97,,,,-6.0,,,1.2882276729663664,6.666672,886613.9454221498,886613.9454221498,0.8866139454221499
12,1,1,12:00:00,-0.1,,-4.4,,73,,30.0,,26,,16.1,,100.99,,,,-6.0,,,1.2884828433482554,7.222228,1127474.9268837527,1127474.9268837527,1.1274749268837527
13,1,1,13:00:00,-0.6,,-5.1,,72,,32.0,,18,,16.1,,101.14,,,,-6.0,,,1.292763887074122,5.000004000000001,375357.3597993534,375357.3597993534,0.3753573597993534
14,1,1,14:00:00,-0.5,,-5.6,,69,,33.0,,18,,16.1,,101.17,,,,-6.0,,,1.292673056413769,5.000004000000001,375330.9868806789,375330.9868806789,0.3753309868806789
15,1,1,15:00:00,-0.9,,-6.2,,67,,33.0,,17,,16.1,,101.29,,,,-6.0,,,1.2961078217368696,4.722226,317026.8928861653,317026.8928861653,0.3170268928861653
16,1,1,16:00:00,-2.0,,-7.3,,67,,33.0,,15,,16.1,,101.37,,,,-7.0,,,1.3023936992770122,4.166670000000001,218838.77363413182,218838.77363413182,0.21883877363413182
17,1,1,17:00:00,-3.2,,-7.9,,70,,32.0,,21,,16.1,,101.48,,,,-9.0,,,1.3096027414677647,5.833338,603817.4620229201,603817.4620229201,0.6038174620229202
18,1,1,18:00:00,-4.2,,-8.3,,73,,34.0,,13,,16.1,,101.55,,,,-9.0,,,1.3153787693397838,3.611114,0.0,0.0,0.0
19,1,1,19:00:00,-5.1,,-10.3,,67,,33.0,,11,,16.1,,101.63,,,,-10.0,,,1.3208349826712704,3.0555580000000004,0.0,0.0,0.0
20,1,1,20:00:00,-5.6,,-10.2,,70,,33.0,,11,,16.1,,101.66,,,,-10.0,,,1.3236939955679168,3.0555580000000004,0.0,0.0,0.0
21,1,1,21:00:00,-6.0,,-10.4,,71,,34.0,,13,,16.1,,101.68,,,,-11.0,,,1.3259367500916,3.611114,0.0,0.0,0.0
22,1,1,22:00:00,-6.4,,-10.7,,72,,32.0,,13,,16.1,,101.66,,,,-12.0,,,1.3276638369791793,3.611114,0.0,0.0,0.0
23,1,1,23:00:00,-6.6,,-10.5,,74,,30.0,,8,,16.1,,101.65,,,,-10.0,,,1.3285293242461407,2.222224,0.0,0.0,0.0
24,1,2,00:00:00,-6.4,,-10.5,,73,,32.0,,11,,16.1,,101.66,,,,-11.0,,,1.3276638369791793,3.0555580000000004,0.0,0.0,0.0
25,1,2,01:00:00,-6.2,,-10.3,,73,,34.0,,8,,16.1,,101.67,,,,-10.0,,,1.3267996465652128,2.222224,0.0,0.0,0.0
26,1,2,02:00:00,-6.2,,-10.3,,73,,32.0,,9,,16.1,,101.73,,,,-10.0,,,1.327582650192575,2.5000020000000003,0.0,0.0,0.0
27,1,2,03:00:00,-6.4,,-10.5,,73,,30.0,,11,,16.1,,101.82,,,,-11.0,,,1.3297534121701755,3.0555580000000004,0.0,0.0,0.0
28,1,2,04:00:00,-6.9,,-10.6,,75,,33.0,,13,,16.1,,101.84,,,,-12.0,,,1.3325122890860812,3.611114,0.0,0.0,0.0
29,1,2,05:00:00,-7.4,,-10.9,,76,,33.0,,9,,16.1,,101.79,,,,-12.0,,,1.334363918296264,2.5000020000000003,0.0,0.0,0.0
30,1,2,06:00:00,-7.4,,-10.6,,78,,6.0,,13,,16.1,,101.8,,,,-13.0,,,1.3344950081791893,3.611114,0.0,0.0,0.0
31,1,2,07:00:00,-7.0,,-10.6,,76,,5.0,,8,,16.1,,101.84,,,,-11.0,,,1.3330129512273874,2.222224,0.0,0.0,0.0
32,1,2,08:00:00,-7.0,,-10.6,,76,,7.0,,9,,16.1,,101.84,,,,-11.0,,,1.3330129512273874,2.5000020000000003,0.0,0.0,0.0
33,1,2,09:00:00,-6.8,,-10.2,,77,,5.0,,8,,16.1,,101.88,,,,-11.0,,,1.3325351812078796,2.222224,0.0,0.0,0.0
34,1,2,10:00:00,-6.6,,-11.0,,71,,6.0,,21,,16.1,,101.8,,,,-14.0,,,1.3304897708633263,5.833338,613447.8275371913,613447.8275371913,0.6134478275371913
35,1,2,11:00:00,-5.9,,-10.4,,71,,5.0,,15,,16.1,,101.77,,,,-12.0,,,1.3266137961251914,4.166670000000001,222908.43113823197,222908.43113823197,0.22290843113823197
36,1,2,12:00:00,-4.7,,-8.5,,75,,7.0,,9,,16.1,,101.64,,,,-9.0,,,1.318996663220046,2.5000020000000003,0.0,0.0,0.0
37,1,2,13:00:00,-4.2,,-7.7,,77,,7.0,,13,,16.1,,101.45,,,,-9.0,,,1.3140834677451607,3.611114,0.0,0.0,0.0
38,1,2,14:00:00,-3.8,,-6.6,,81,,6.0,,15,,16.1,,101.4,,,,-9.0,,,1.311485290395857,4.166670000000001,220366.4166593825,220366.4166593825,0.2203664166593825
39,1,2,15:00:00,-3.4,,-5.6,,85,,6.0,,17,,16.1,,101.22,,,,-9.0,,Snow,1.3072159203453235,4.722226,319743.9245471518,319743.9245471518,0.3197439245471518
40,1,2,16:00:00,-2.7,,-4.9,,85,,8.0,,15,,16.1,,101.04,,,,-8.0,,,1.3015138696919135,4.166670000000001,218690.93751705225,218690.93751705225,0.21869093751705226
41,1,2,17:00:00,-2.1,,-5.3,,79,,9.0,,8,,16.1,,100.96,,,,-5.0,,,1.2976046078844454,2.222224,0.0,0.0,0.0
42,1,2,18:00:00,-1.1,,-4.0,,81,,9.0,,15,,12.9,,100.87,,,,-6.0,,Snow,1.2916823919852691,4.166670000000001,217038.97273441567,217038.97273441567,0.21703897273441566
43,1,2,19:00:00,-0.8,,-2.9,,86,,10.0,,13,,16.1,,100.73,,,,-5.0,,Snow,1.2884687895361446,3.611114,0.0,0.0,0.0
44,1,2,20:00:00,-0.2,,-2.3,,86,,9.0,,13,,16.1,,100.64,,,,-4.0,,Snow,1.2844877838530224,3.611114,0.0,0.0,0.0
45,1,2,21:00:00,0.1,,-2.0,,86,,8.0,,15,,11.3,,100.5,,,,,,Snow,1.2812926649341592,4.166670000000001,215293.2063601462,215293.2063601462,0.2152932063601462
46,1,2,22:00:00,0.3,,-1.2,,90,,9.0,,15,,6.4,,100.35,,,,,,Snow,1.2784445553024253,4.166670000000001,214814.64383383008,214814.64383383008,0.2148146438338301
47,1,2,23:00:00,0.3,,-0.7,,93,,8.0,,11,,2.8,,100.23,,,,,,Snow,1.2769157725756062,3.0555580000000004,0.0,0.0,0.0
48,1,3,00:00:00,0.3,,-0.4,,95,,8.0,,9,,3.2,,100.09,,,,,,Snow,1.2751321927276507,2.5000020000000003,0.0,0.0,0.0
49,1,3,01:00:00,0.3,,-0.3,,96,,,M,4,,4.0,,100.1,,,,,,"Rain,Fog",1.275259591288219,1.111112,0.0,0.0,0.0
50,1,3,02:00:00,0.3,,-0.1,,97,,29.0,,17,,9.7,,100.14,,,,,,Snow,1.275769185530492,4.722226,312052.079422414,312052.079422414,0.31205207942241403
51,1,3,03:00:00,0.1,,-1.4,,90,,27.0,,22,,16.1,,100.27,,,,,,,1.278360353362668,6.111116000000001,677687.6078535937,677687.6078535937,0.6776876078535936
52,1,3,04:00:00,0.3,,-1.8,,86,,24.0,,24,,16.1,,100.28,,,,,,,1.2775527653784475,6.666672,879267.0127858187,879267.0127858187,0.8792670127858186
53,1,3,05:00:00,0.8,,-2.1,,81,,26.0,,24,,16.1,,100.33,,,,,,,1.2758568694092842,6.666672,878099.8239046925,878099.8239046925,0.8780998239046925
54,1,3,06:00:00,1.0,,-2.8,,76,,26.0,,26,,16.1,,100.37,,,,,,,1.275434389641521,7.222228,1116056.9988415628,1116056.9988415628,1.1160569988415627
55,1,3,07:00:00,0.8,,-3.9,,71,,25.0,,28,,16.1,,100.48,,,,,,,1.277764359994467,7.7777840000000005,1396474.7036141208,1396474.7036141208,1.3964747036141207
56,1,3,08:00:00,0.5,,-4.2,,71,,27.0,,30,,16.1,,100.57,,,,,,,1.2803109104621624,8.333340000000002,1721025.9519619816,1721025.9519619816,1.7210259519619815
57,1,3,09:00:00,0.3,,-4.1,,72,,26.0,,26,,6.4,,100.66,,,,,,"Rain,Snow",1.2823939106800413,7.222228,1122146.8629903637,1122146.8629903637,1.1221468629903637
58,1,3,10:00:00,0.2,,-5.0,,68,,29.0,,22,,16.1,,100.65,,,,,,,1.2827356054109014,6.111116000000001,680007.0274808721,680007.0274808721,0.6800070274808722
59,1,3,11:00:00,0.1,,-4.7,,70,,27.0,,17,,16.1,,100.61,,,,,,,1.2826950748161767,4.722226,313746.1461689381,313746.1461689381,0.3137461461689381
60,1,3,12:00:00,0.2,,-4.2,,73,,25.0,,32,,16.1,,100.49,,,,,,Snow,1.2806964827396072,8.888896,2089317.1079239661,2089317.1079239661,2.089317107923966
61,1,3,13:00:00,0.2,,-4.6,,70,,25.0,,28,,16.1,,100.51,,,,,,,1.2809513730735191,7.7777840000000005,1399957.8052597193,1399957.8052597193,1.3999578052597192
62,1,3,14:00:00,0.5,,-3.8,,73,,25.0,,30,,16.1,,100.46,,,,,,,1.278910550512368,8.333340000000002,1719143.553088403,1719143.553088403,1.7191435530884032
63,1,3,15:00:00,0.8,,-3.5,,73,,24.0,,34,,16.1,,100.44,,,,,,,1.2772556958384182,9.444452,2499325.4288377673,2499325.4288377673,2.4993254288377673
64,1,3,16:00:00,1.0,,-3.7,,71,,24.0,,24,,16.1,,100.44,,,,,,,1.2763239025166322,6.666672,878421.2562684261,878421.2562684261,0.878421256268426
65,1,3,17:00:00,1.0,,-3.7,,71,,25.0,,24,,16.1,,100.45,,,,,,,1.2764509757845053,6.666672,878508.7135818737,878508.7135818737,0.8785087135818737
66,1,3,18:00:00,1.1,,-3.8,,70,,24.0,,24,,16.1,,100.43,,,,,,,1.275731488563527,6.666672,878013.53138927,878013.53138927,0.87801353138927
67,1,3,19:00:00,1.3,,-3.0,,73,,23.0,,32,,16.1,,100.46,,,,,,,1.2751826276105283,8.888896,2080321.852602303,2080321.852602303,2.080321852602303
68,1,3,20:00:00,1.2,,-2.6,,76,,23.0,,32,,16.1,,100.44,,,,,,,1.2753934677416974,8.888896,2080665.815359307,2080665.815359307,2.080665815359307
69,1,3,21:00:00,1.2,,-2.2,,78,,22.0,,35,,16.1,,100.35,,,,,,,1.274250642053757,9.722230000000001,2719989.3450825536,2719989.3450825536,2.7199893450825536
70,1,3,22:00:00,1.4,,-2.2,,77,,23.0,,37,,16.1,,100.33,,,,,,,1.2730686191027991,10.277786,3210444.701986024,3210444.701986024,3.2104447019860243
71,1,3,23:00:00,1.4,,-1.7,,80,,23.0,,28,,16.1,,100.27,,,,,,,1.2723072903163326,7.7777840000000005,1390510.64639045,1390510.64639045,1.39051064639045
72,1,4,00:00:00,1.6,,-1.5,,80,,24.0,,22,,16.1,,100.21,,,,,,,1.2706203593740664,6.111116000000001,673584.4627606322,673584.4627606322,0.6735844627606321
73,1,4,01:00:00,1.8,,-1.3,,80,,24.0,,24,,16.1,,100.18,,,,,,,1.2693159931946265,6.666672,873598.1102799247,873598.1102799247,0.8735981102799247
74,1,4,02:00:00,2.0,,-1.3,,79,,24.0,,28,,16.1,,100.14,,,,,,,1.267886911805608,7.7777840000000005,1385679.5938396861,1385679.5938396861,1.3856795938396862
75,1,4,03:00:00,1.8,,-1.3,,80,,24.0,,22,,16.1,,100.11,,,,,,,1.2684290684639055,6.111116000000001,672422.8101083796,672422.8101083796,0.6724228101083796
76,1,4,04:00:00,1.7,,-1.0,,82,,25.0,,28,,16.1,,100.03,,,,,,,1.2678765700674979,7.7777840000000005,1385668.291305264,1385668.291305264,1.385668291305264
77,1,4,05:00:00,1.7,,-0.6,,85,,25.0,,30,,16.1,,99.99,,,,,,,1.2673695715390294,8.333340000000002,1703629.880462593,1703629.880462593,1.703629880462593
78,1,4,06:00:00,1.7,,-0.4,,86,,24.0,,18,,16.1,,99.97,,,,,,,1.2671160722747952,5.000004000000001,367910.45000866696,367910.45000866696,0.36791045000866696
79,1,4,07:00:00,1.8,,-0.3,,86,,23.0,,28,,16.1,,99.95,,,,,,,1.2664018119365434,7.7777840000000005,1384056.5211790132,1384056.5211790132,1.3840565211790132
80,1,4,08:00:00,2.0,,-0.3,,85,,23.0,,22,,16.1,,99.98,,,,,,,1.2658611288428667,6.111116000000001,671061.4874935811,671061.4874935811,0.6710614874935812
81,1,4,09:00:00,2.4,,-0.4,,82,,23.0,,22,,16.1,,100.0,,,,,,,1.2642764067279608,6.111116000000001,670221.3906176587,670221.3906176587,0.6702213906176587
82,1,4,10:00:00,3.2,,-0.3,,78,,24.0,,18,,16.1,,100.0,,,,,,,1.2606164786462444,5.000004000000001,366023.2760795566,366023.2760795566,0.3660232760795566
83,1,4,11:00:00,4.2,,0.7,,78,,24.0,,21,,16.1,,99.94,,,,,,,1.2553176169301075,5.833338,578788.2641707612,578788.2641707612,0.5787882641707612
84,1,4,12:00:00,5.1,,1.3,,76,,22.0,,15,,16.1,,99.81,,,,,,,1.2496296793621893,4.166670000000001,209972.93420587244,209972.93420587244,0.20997293420587243
85,1,4,13:00:00,5.7,,1.4,,74,,20.0,,11,,16.1,,99.76,,,,,,,1.2463162008269402,3.0555580000000004,0.0,0.0,0.0
86,1,4,14:00:00,6.3,,1.3,,70,,19.0,,17,,16.1,,99.69,,,,,,,1.2427676244261245,4.722226,303979.92508320924,303979.92508320924,0.30397992508320926
87,1,4,15:00:00,6.2,,1.5,,72,,17.0,,13,,16.1,,99.65,,,,,,,1.242713671381174,3.611114,0.0,0.0,0.0
88,1,4,16:00:00,5.3,,1.8,,78,,18.0,,11,,16.1,,99.64,,,,,,,1.24660523240777,3.0555580000000004,0.0,0.0,0.0
89,1,4,17:00:00,4.1,,1.0,,80,,19.0,,15,,16.1,,99.64,,,,,,,1.2520008186255853,4.166670000000001,210371.35229466183,210371.35229466183,0.21037135229466183
90,1,4,18:00:00,4.5,,1.7,,82,,26.0,,11,,16.1,,99.67,,,,,,,1.2505735219632839,3.0555580000000004,0.0,0.0,0.0
91,1,4,19:00:00,3.5,,0.7,,82,,24.0,,11,,16.1,,99.67,,,,,,,1.2550939395377039,3.0555580000000004,0.0,0.0,0.0
92,1,4,20:00:00,3.3,,1.4,,87,,21.0,,21,,16.1,,99.69,,,,,,,1.2562539795474064,5.833338,579219.9921148223,579219.9921148223,0.5792199921148222
93,1,4,21:00:00,2.8,,0.4,,84,,27.0,,11,,16.1,,99.68,,,,,,,1.258403969956489,3.0555580000000004,0.0,0.0,0.0
94,1,4,22:00:00,3.4,,-0.9,,73,,29.0,,11,,16.1,,99.66,,,,,,,1.2554218088472913,3.0555580000000004,0.0,0.0,0.0
95,1,4,23:00:00,3.1,,-0.5,,77,,32.0,,8,,16.1,,99.6,,,,,,,1.2560285191616072,2.222224,0.0,0.0,0.0
96,1,5,00:00:00,3.0,,-0.3,,79,,32.0,,9,,16.1,,99.53,,,,,,,1.2556002841342833,2.5000020000000003,0.0,0.0,0.0
97,1,5,01:00:00,2.8,,-0.5,,79,,,M,4,,16.1,,99.49,,,,,,,1.256005326755328,1.111112,0.0,0.0,0.0
98,1,5,02:00:00,3.4,,-0.3,,77,,,M,4,,16.1,,99.47,,,,,,,1.2530283697174398,1.111112,0.0,0.0,0.0
99,1,5,03:00:00,2.7,,-0.9,,77,,,M,5,,16.1,,99.52,,,,,,,1.256839519040402,1.3888900000000002,0.0,0.0,0.0
100,1,5,04:00:00,2.5,,-0.8,,79,,35.0,,15,,16.1,,99.48,,,,,,,1.257245901620698,4.166670000000001,211252.6737651948,211252.6737651948,0.2112526737651948
101,1,5,05:00:00,1.9,,-0.9,,82,,35.0,,21,,16.1,,99.47,,,,,,,1.2598618274690347,5.833338,580883.4595973054,580883.4595973054,0.5808834595973054
102,1,5,06:00:00,2.1,,-0.3,,84,,35.0,,18,,14.5,,99.54,,,,,,,1.2598323545869925,5.000004000000001,365795.60361780337,365795.60361780337,0.3657956036178034
103,1,5,07:00:00,2.3,,0.0,,85,,35.0,,17,,14.5,,99.6,,,,,,,1.2596764509653078,4.722226,308115.80996112386,308115.80996112386,0.30811580996112387
104,1,5,08:00:00,2.5,,0.2,,85,,35.0,,13,,16.1,,99.6,,,,,,,1.2587624829254274,3.611114,0.0,0.0,0.0
105,1,5,09:00:00,2.4,,-0.4,,82,,3.0,,15,,16.1,,99.67,,,,,,,1.2601042945857586,4.166670000000001,211732.964180747,211732.964180747,0.211732964180747
106,1,5,10:00:00,2.6,,-0.5,,80,,32.0,,5,,16.1,,99.74,,,,,,,1.2600746992849228,1.3888900000000002,0.0,0.0,0.0
107,1,5,11:00:00,2.9,,-0.6,,78,,9.0,,8,,16.1,,99.74,,,,,,,1.2587053009520648,2.222224,0.0,0.0,0.0
108,1,5,12:00:00,2.9,,-0.2,,80,,20.0,,9,,16.1,,99.71,,,,,,,1.258326705012336,2.5000020000000003,0.0,0.0,0.0
109,1,5,13:00:00,3.0,,0.1,,81,,21.0,,15,,16.1,,99.7,,,,,,,1.2577448842377978,4.166670000000001,211336.51687964748,211336.51687964748,0.21133651687964747
110,1,5,14:00:00,3.1,,0.5,,83,,22.0,,18,,16.1,,99.71,,,,,,,1.2574156992530507,5.000004000000001,365093.92145080963,365093.92145080963,0.36509392145080966
111,1,5,15:00:00,3.5,,-0.5,,75,,24.0,,9,,16.1,,99.77,,,,,,,1.2563531890004687,2.5000020000000003,0.0,0.0,0.0
112,1,5,16:00:00,2.8,,0.4,,84,,21.0,,24,,16.1,,99.79,,,,,,,1.2597926581255823,6.666672,867043.7396074645,867043.7396074645,0.8670437396074645
113,1,5,17:00:00,1.7,,-0.2,,87,,21.0,,32,,16.1,,99.76,,,,,,,1.2644543300003357,8.888896,2062819.8011498568,2062819.8011498568,2.062819801149857
114,1,5,18:00:00,1.6,,-0.3,,87,,22.0,,30,,16.1,,99.8,,,,,,,1.2654217330159847,8.333340000000002,1701011.5471960416,1701011.5471960416,1.7010115471960416
115,1,5,19:00:00,1.4,,-0.7,,86,,24.0,,26,,16.1,,99.83,,,,,,,1.2667242125489129,7.222228,1108435.2393968555,1108435.2393968555,1.1084352393968555
116,1,5,20:00:00,1.6,,-0.5,,86,,23.0,,21,,11.3,,99.83,,,,,,,1.2658021203104783,5.833338,583622.3455461644,583622.3455461644,0.5836223455461644
117,1,5,21:00:00,1.9,,0.1,,88,,24.0,,17,,8.1,,99.89,,,,,,Fog,1.2651814410966309,4.722226,309462.3259588158,309462.3259588158,0.3094623259588158
118,1,5,22:00:00,2.0,,0.4,,89,,22.0,,13,,6.4,,99.82,,,,,,Fog,1.2638353458801257,3.611114,0.0,0.0,0.0
119,1,5,23:00:00,2.4,,0.9,,90,,22.0,,18,,4.8,,99.8,,,,,,Fog,1.261747853914505,5.000004000000001,366351.7738337736,366351.7738337736,0.3663517738337736
120,1,6,00:00:00,2.9,,1.6,,91,,24.0,,21,,4.8,,99.8,,,,,,Fog,1.2594624928315226,5.833338,580699.338703476,580699.338703476,0.580699338703476
121,1,6,01:00:00,3.2,,2.0,,92,,23.0,,24,,4.8,,99.86,,,,,,Fog,1.2588516155761396,6.666672,866396.0734649958,866396.0734649958,0.8663960734649958
122,1,6,02:00:00,4.9,,1.4,,78,,29.0,,17,,16.1,,100.01,,,,,,,1.2530343499740226,4.722226,306491.1575948713,306491.1575948713,0.3064911575948713
123,1,6,03:00:00,4.8,,0.6,,74,,30.0,,22,,16.1,,100.12,,,,,,,1.2548638586455774,6.111116000000001,665231.5869390806,665231.5869390806,0.6652315869390806
124,1,6,04:00:00,3.6,,0.8,,82,,33.0,,26,,16.1,,100.24,,,,,,Rain,1.261815556087396,7.222228,1104139.9652194637,1104139.9652194637,1.1041399652194637
125,1,6,05:00:00,3.2,,-1.1,,74,,32.0,,21,,16.1,,100.39,,,,,,,1.2655328829129646,5.833338,583498.2084800904,583498.2084800904,0.5834982084800904
126,1,6,06:00:00,2.6,,-1.8,,73,,31.0,,18,,16.1,,100.57,,,,,,,1.2705605825855693,5.000004000000001,368910.5725437882,368910.5725437882,0.3689105725437882
127,1,6,07:00:00,2.3,,-1.7,,75,,29.0,,17,,16.1,,100.71,,,,,,,1.2737150138224511,4.722226,311549.630734787,311549.630734787,0.311549630734787
128,1,6,08:00:00,2.0,,-1.3,,79,,31.0,,11,,16.1,,100.85,,,,,,Rain,1.2768763237027718,3.0555580000000004,0.0,0.0,0.0
129,1,6,09:00:00,1.7,,-0.7,,84,,31.0,,13,,16.1,,101.01,,,,,,Rain,1.280298034014975,3.611114,0.0,0.0,0.0
130,1,6,10:00:00,2.1,,-2.1,,74,,32.0,,18,,16.1,,101.15,,,,,,Rain,1.2802093898580902,5.000004000000001,371712.1288521279,371712.1288521279,0.3717121288521279
131,1,6,11:00:00,2.2,,-6.2,,54,,36.0,,21,,16.1,,101.26,,,,,,,1.2811361650942459,5.833338,590692.4009993953,590692.4009993953,0.5906924009993952
132,1,6,12:00:00,1.8,,-8.4,,47,,35.0,,21,,16.1,,101.31,,,,,,,1.2836334924191217,5.833338,591843.841661055,591843.841661055,0.591843841661055
133,1,6,13:00:00,1.1,,-8.5,,49,,33.0,,18,,16.1,,101.35,,,,,,,1.287417966403599,5.000004000000001,373805.15781672683,373805.15781672683,0.37380515781672685
134,1,6,14:00:00,1.2,,-8.4,,49,,34.0,,17,,16.1,,101.47,,,,,,,1.2884724728370176,4.722226,315159.2929093531,315159.2929093531,0.3151592929093531
135,1,6,15:00:00,-0.1,,-6.8,,61,,32.0,,26,,16.1,,101.6,,,,-6.0,,"Rain,Snow",1.2962655399958685,7.222228,1134285.103192289,1134285.103192289,1.134285103192289
136,1,6,16:00:00,-1.0,,-9.4,,53,,34.0,,22,,16.1,,101.75,,,,-7.0,,,1.302472396625694,6.111116000000001,690469.9449124673,690469.9449124673,0.6904699449124673
137,1,6,17:00:00,-1.8,,-10.2,,53,,33.0,,13,,16.1,,101.86,,,,-6.0,,,1.3077246038029997,3.611114,0.0,0.0,0.0
138,1,6,18:00:00,-2.4,,-10.7,,53,,32.0,,18,,16.1,,101.98,,,,-8.0,,,1.3121666366707019,5.000004000000001,380990.9986519234,380990.9986519234,0.3809909986519234
139,1,6,19:00:00,-2.9,,-11.5,,52,,3.0,,24,,16.1,,102.09,,,,-10.0,,,1.3160123048246213,6.666672,905736.5295669421,905736.5295669421,0.9057365295669422
140,1,6,20:00:00,-3.8,,-13.3,,48,,2.0,,22,,16.1,,102.18,,,,-10.0,,,1.3215736387835173,6.111116000000001,700595.9434784563,700595.9434784563,0.7005959434784563
141,1,6,21:00:00,-4.4,,-13.9,,48,,1.0,,13,,16.1,,102.25,,,,-9.0,,,1.3254315146457751,3.611114,0.0,0.0,0.0
142,1,6,22:00:00,-4.7,,-13.6,,50,,1.0,,13,,16.1,,102.3,,,,-10.0,,,1.3275615766175788,3.611114,0.0,0.0,0.0
143,1,6,23:00:00,-5.4,,-13.3,,54,,5.0,,24,,16.1,,102.3,,,,-13.0,,,1.331032325837494,6.666672,916073.9570031052,916073.9570031052,0.9160739570031052
144,1,7,00:00:00,-6.0,,-13.2,,57,,6.0,,17,,16.1,,102.33,,,,-12.0,,,1.334412938993641,4.722226,326396.2926397144,326396.2926397144,0.32639629263971437
145,1,7,01:00:00,-6.6,,-12.9,,61,,4.0,,18,,16.1,,102.34,,,,-13.0,,,1.3375473786851946,5.000004000000001,388360.36316431727,388360.36316431727,0.38836036316431727
146,1,7,02:00:00,-7.0,,-12.7,,64,,4.0,,18,,16.1,,102.35,,,,-14.0,,,1.3396884874128347,5.000004000000001,388982.0396568973,388982.0396568973,0.3889820396568973
147,1,7,03:00:00,-6.9,,-11.7,,69,,4.0,,21,,16.1,,102.38,,,,-14.0,,,1.339577849142115,5.833338,617638.0603361954,617638.0603361954,0.6176380603361954
148,1,7,04:00:00,-5.6,,-9.2,,76,,6.0,,30,,16.1,,102.3,,,,-14.0,,,1.3320273042159936,8.333340000000002,1790544.422096786,1790544.422096786,1.790544422096786
149,1,7,05:00:00,-4.6,,-7.5,,80,,8.0,,26,,16.1,,102.28,,,,-12.0,,,1.3268077861486287,7.222228,1161010.8115909079,1161010.8115909079,1.161010811590908
150,1,7,06:00:00,-4.3,,-8.1,,75,,9.0,,28,,16.1,,102.31,,,,-12.0,,,1.3257159843011956,7.7777840000000005,1448881.2602830238,1448881.2602830238,1.4488812602830239
151,1,7,07:00:00,-3.7,,-7.5,,75,,10.0,,24,,16.1,,102.29,,,,-11.0,,,1.3225053557491246,6.666672,910205.3277606224,910205.3277606224,0.9102053277606224
152,1,7,08:00:00,-3.3,,-7.3,,74,,10.0,,28,,16.1,,102.22,,,,-11.0,,,1.3196413124027793,7.7777840000000005,1442242.2226760187,1442242.2226760187,1.4422422226760188
153,1,7,09:00:00,-3.2,,-6.9,,76,,11.0,,26,,16.1,,102.25,,,,-10.0,,,1.3195396168218265,7.222228,1154650.8676284254,1154650.8676284254,1.1546508676284253
154,1,7,10:00:00,-3.2,,-7.2,,74,,11.0,,30,,16.1,,102.08,,,,-11.0,,,1.3173457612241766,8.333340000000002,1770809.1247582342,1770809.1247582342,1.7708091247582343
155,1,7,11:00:00,-3.1,,-8.4,,67,,11.0,,24,,16.1,,102.01,,,,-10.0,,,1.3159549279309564,6.666672,905697.0403096193,905697.0403096193,0.9056970403096193
156,1,7,12:00:00,-2.9,,-9.4,,61,,9.0,,30,,16.1,,101.75,,,,-10.0,,,1.3116294643540523,8.333340000000002,1763125.1355160808,1763125.1355160808,1.7631251355160809
157,1,7,13:00:00,-2.6,,-9.3,,60,,9.0,,37,,16.1,,101.48,,,,-11.0,,,1.3066984293447539,10.277786,3295252.8926051357,3295252.8926051357,3.2952528926051357
158,1,7,14:00:00,-2.3,,-8.6,,62,,9.0,,46,,16.1,,101.13,,,,-11.0,,Snow,1.30074934571041,12.777788000000001,6303406.566646659,4000000.0,4.0
159,1,7,15:00:00,-1.7,,-8.3,,61,,9.0,,35,,16.1,,101.12,,,,-9.0,,,1.2977458948214298,9.722230000000001,2770141.8308486906,2770141.8308486906,2.7701418308486905
160,1,7,16:00:00,-1.4,,-7.2,,65,,9.0,,43,,16.1,,100.8,,,,-10.0,,,1.292210983569018,11.944454,5115016.082396599,4000000.0,4.0
161,1,7,17:00:00,-1.0,,-6.8,,65,,8.0,,43,,16.1,,100.59,,,,-9.0,,,1.2876235712685853,11.944454,5096857.524706206,4000000.0,4.0
162,1,7,18:00:00,-0.2,,-5.2,,69,,9.0,,41,,16.1,,100.3,,,,-8.0,,,1.2801482980967622,11.388898000000001,4392583.8651317535,4000000.0,4.0
163,1,7,19:00:00,0.9,,-3.2,,74,,8.0,,26,,16.1,,100.18,,,,,,,1.2734845186238373,7.222228,1114350.7823448163,1114350.7823448163,1.1143507823448162
164,1,7,20:00:00,1.4,,-2.4,,76,,8.0,,26,,16.1,,100.01,,,,,,,1.269008198908312,7.222228,1110433.8204155015,1110433.8204155015,1.1104338204155015
165,1,7,21:00:00,1.9,,-0.9,,82,,9.0,,21,,16.1,,99.9,,,,,,Rain,1.2653080985639547,5.833338,583394.5673446347,583394.5673446347,0.5833945673446347
166,1,7,22:00:00,2.0,,-0.2,,86,,10.0,,13,,16.1,,99.76,,,,,,Rain,1.2630756772690979,3.611114,0.0,0.0,0.0
167,1,7,23:00:00,2.4,,0.9,,90,,7.0,,9,,11.3,,99.66,,,,,,Rain,1.2599778669450858,2.5000020000000003,0.0,0.0,0.0
168,1,8,00:00:00,3.6,,2.3,,91,,9.0,,5,,16.1,,99.56,,,,,,,1.2532557538314162,1.3888900000000002,0.0,0.0,0.0
169,1,8,01:00:00,5.2,,3.7,,90,,21.0,,22,,16.1,,99.49,,,,,,,1.2451757496609763,6.111116000000001,660095.7022214977,660095.7022214977,0.6600957022214977
170,1,8,02:00:00,5.6,,3.6,,87,,22.0,,30,,16.1,,99.54,,,,,,,1.244013831749129,8.333340000000002,1672234.510808842,1672234.510808842,1.6722345108088421
171,1,8,03:00:00,5.5,,3.8,,89,,22.0,,32,,16.1,,99.57,,,,,,,1.2448353382710635,8.888896,2030813.5486047552,2030813.5486047552,2.030813548604755
172,1,8,04:00:00,5.6,,4.6,,93,,25.0,,9,,16.1,,99.69,,,,,,,1.2458884758596611,2.5000020000000003,0.0,0.0,0.0
173,1,8,05:00:00,7.4,,4.8,,83,,26.0,,18,,16.1,,99.79,,,,,,,1.2391366387800906,5.000004000000001,359786.5486603523,359786.5486603523,0.3597865486603523
174,1,8,06:00:00,6.8,,3.1,,77,,26.0,,28,,16.1,,99.86,,,,,,,1.2426634897819828,7.7777840000000005,1358112.7967858629,1358112.7967858629,1.3581127967858628
175,1,8,07:00:00,6.0,,2.5,,78,,27.0,,21,,16.1,,99.95,,,,,,,1.2473479426543173,5.833338,575113.6929882334,575113.6929882334,0.5751136929882334
176,1,8,08:00:00,6.1,,2.6,,78,,28.0,,5,,16.1,,99.87,,,,,,,1.2459032447658136,1.3888900000000002,0.0,0.0,0.0
177,1,8,09:00:00,5.1,,2.7,,84,,27.0,,9,,16.1,,99.97,,,,,,,1.2516328929549951,2.5000020000000003,0.0,0.0,0.0
178,1,8,10:00:00,5.1,,3.4,,89,,,,0,,16.1,,99.87,,,,,,,1.2503808844594915,0.0,0.0,0.0,0.0
179,1,8,11:00:00,6.2,,3.3,,81,,,M,4,,16.1,,99.74,,,,,,,1.2438360419825218,1.111112,0.0,0.0,0.0
180,1,8,12:00:00,5.3,,3.5,,88,,16.0,,9,,16.1,,99.65,,,,,,,1.246730343330332,2.5000020000000003,0.0,0.0,0.0
181,1,8,13:00:00,4.7,,3.2,,90,,5.0,,8,,16.1,,99.51,,,,,,,1.2476672456034101,2.222224,0.0,0.0,0.0
182,1,8,14:00:00,4.8,,3.6,,92,,8.0,,5,,12.9,,99.46,,,,,,Rain,1.2465916837883453,1.3888900000000002,0.0,0.0,0.0
183,1,8,15:00:00,4.2,,3.5,,95,,8.0,,15,,6.4,,99.41,,,,,,"Rain,Fog",1.248660439253772,4.166670000000001,209810.07460604422,209810.07460604422,0.20981007460604423
184,1,8,16:00:00,4.0,,3.3,,95,,8.0,,5,,9.7,,99.36,,,,,,Fog,1.2489330223528654,1.3888900000000002,0.0,0.0,0.0
185,1,8,17:00:00,4.3,,3.3,,93,,7.0,,9,,16.1,,99.32,,,,,,,1.2470803337521972,2.5000020000000003,0.0,0.0,0.0
186,1,8,18:00:00,5.1,,4.1,,93,,4.0,,13,,11.3,,99.2,,,,,,Moderate Rain,1.241992427539617,3.611114,0.0,0.0,0.0
187,1,8,19:00:00,4.3,,3.3,,93,,9.0,,9,,11.3,,99.17,,,,,,,1.2451969059424626,2.5000020000000003,0.0,0.0,0.0
188,1,8,20:00:00,3.7,,3.0,,95,,10.0,,11,,4.8,,99.2,,,,,,"Rain,Fog",1.2482730466422194,3.0555580000000004,0.0,0.0,0.0
189,1,8,21:00:00,3.6,,3.0,,96,,,M,4,,4.8,,99.22,,,,,,Fog,1.2489758527034263,1.111112,0.0,0.0,0.0
190,1,8,22:00:00,3.7,,3.3,,97,,25.0,,17,,4.8,,99.23,,,,,,Fog,1.2486505485716475,4.722226,305418.8834257651,305418.8834257651,0.30541888342576506
191,1,8,23:00:00,4.4,,3.7,,95,,27.0,,21,,12.9,,99.28,,,,,,Rain,1.2461289499333366,5.833338,574551.6530140486,574551.6530140486,0.5745516530140485
192,1,9,00:00:00,3.7,,2.4,,91,,28.0,,22,,11.3,,99.34,,,,,,Rain,1.2500347223128838,6.111116000000001,662671.5530326054,662671.5530326054,0.6626715530326055
193,1,9,01:00:00,3.4,,1.3,,86,,29.0,,26,,16.1,,99.42,,,,,,Rain,1.2523985173148473,7.222228,1095899.6730367986,1095899.6730367986,1.0958996730367987
194,1,9,02:00:00,3.1,,1.0,,86,,26.0,,18,,16.1,,99.5,,,,,,,1.254767446351204,5.000004000000001,364324.9943271042,364324.9943271042,0.3643249943271042
195,1,9,03:00:00,3.1,,0.3,,82,,29.0,,21,,16.1,,99.56,,,,,,,1.255524090037446,5.833338,578883.4625570364,578883.4625570364,0.5788834625570364
196,1,9,04:00:00,2.4,,-1.6,,75,,30.0,,24,,16.1,,99.59,,,,,,,1.2590928734603763,6.666672,866562.1175650383,866562.1175650383,0.8665621175650383
197,1,9,05:00:00,1.6,,-3.1,,71,,30.0,,30,,16.1,,99.66,,,,,,,1.2636465923083469,8.333340000000002,1698625.3586528806,1698625.3586528806,1.6986253586528806
198,1,9,06:00:00,1.2,,-3.7,,70,,31.0,,26,,16.1,,99.68,,,,,,,1.2657429397101991,7.222228,1107576.5857269263,1107576.5857269263,1.1075765857269264
199,1,9,07:00:00,1.1,,-4.0,,69,,30.0,,24,,16.1,,99.73,,,,,,,1.2668396032504285,6.666672,871893.7517221138,871893.7517221138,0.8718937517221138
200,1,9,08:00:00,1.0,,-4.1,,69,,29.0,,26,,16.1,,99.8,,,,,,Rain,1.2681912133727589,7.222228,1109718.9248220383,1109718.9248220383,1.1097189248220383
201,1,9,09:00:00,0.1,,-5.3,,67,,29.0,,28,,16.1,,99.89,,,,,,,1.2735156646793349,7.7777840000000005,1391831.284438639,1391831.284438639,1.391831284438639
202,1,9,10:00:00,0.2,,-5.2,,67,,29.0,,28,,16.1,,99.92,,,,,,,1.2734321082231224,7.7777840000000005,1391739.965193027,1391739.965193027,1.391739965193027
203,1,9,11:00:00,0.6,,-5.2,,65,,29.0,,35,,16.1,,99.91,,,,,,,1.271444126562203,9.722230000000001,2713998.6145450105,2713998.6145450105,2.7139986145450106
204,1,9,12:00:00,0.7,,-4.5,,68,,27.0,,37,,16.1,,99.85,,,,,,,1.2702165668361467,10.277786,3203252.351195291,3203252.351195291,3.203252351195291
205,1,9,13:00:00,0.6,,-5.3,,65,,29.0,,35,,16.1,,99.83,,,,,,Snow,1.270426054996544,9.722230000000001,2711825.459814117,2711825.459814117,2.7118254598141167
206,1,9,14:00:00,0.9,,-6.6,,58,,28.0,,37,,16.1,,99.85,,,,,,,1.2692895706187877,10.277786,3200914.63738307,3200914.63738307,3.20091463738307
207,1,9,15:00:00,-0.2,,-6.2,,64,,29.0,,37,,16.1,,99.88,,,,-7.0,,Snow,1.2747877568684407,10.277786,3214780.050960047,3214780.050960047,3.214780050960047
208,1,9,16:00:00,-0.4,,-8.4,,55,,31.0,,28,,16.1,,99.95,,,,-7.0,,Snow,1.276616601986994,7.7777840000000005,1395220.3134671666,1395220.3134671666,1.3952203134671666
209,1,9,17:00:00,-1.0,,-9.2,,54,,31.0,,32,,16.1,,100.03,,,,-8.0,,,1.280455172820326,8.888896,2088923.4370195316,2088923.4370195316,2.0889234370195315
210,1,9,18:00:00,-1.3,,-8.5,,58,,30.0,,32,,16.1,,100.06,,,,-8.0,,,1.2822526639404594,8.888896,2091855.8484060322,2091855.8484060322,2.0918558484060323
211,1,9,19:00:00,-1.8,,-9.0,,58,,30.0,,26,,16.1,,100.11,,,,-8.0,,,1.2852573148116857,7.222228,1124652.4581409947,1124652.4581409947,1.1246524581409947
212,1,9,20:00:00,-2.2,,-9.2,,59,,30.0,,30,,16.1,,100.09,,,,-9.0,,,1.2868975755725267,8.333340000000002,1729879.9119643436,1729879.9119643436,1.7298799119643435
213,1,9,21:00:00,-2.4,,-8.9,,61,,30.0,,37,,16.1,,100.11,,,,-10.0,,Snow,1.2881055304677778,10.277786,3248365.0243484993,3248365.0243484993,3.2483650243484994
214,1,9,22:00:00,-3.0,,-7.7,,70,,30.0,,32,,16.1,,100.15,,,,-11.0,,Snow,1.2914822169894518,8.888896,2106912.861011002,2106912.861011002,2.1069128610110024
215,1,9,23:00:00,-3.0,,-7.5,,71,,31.0,,28,,16.1,,100.18,,,,-10.0,,Snow,1.2918690813579958,7.7777840000000005,1411889.8202055548,1411889.8202055548,1.4118898202055548
216,1,10,00:00:00,-3.1,,-8.0,,69,,31.0,,30,,16.1,,100.2,,,,-11.0,,,1.2926054678823824,8.333340000000002,1737552.6035863496,1737552.6035863496,1.7375526035863496
217,1,10,01:00:00,-3.3,,-8.4,,68,,33.0,,30,,16.1,,100.24,,,,-11.0,,,1.2940798782552787,8.333340000000002,1739534.5428909834,1739534.5428909834,1.7395345428909834
218,1,10,02:00:00,-3.4,,-8.5,,68,,31.0,,37,,16.1,,100.34,,,,-12.0,,Snow,1.2958510714033764,10.277786,3267897.852734634,3267897.852734634,3.267897852734634
219,1,10,03:00:00,-4.2,,-8.5,,72,,31.0,,32,,16.1,,100.43,,,,-12.0,,Snow,1.3008713914800047,8.888896,2122230.278648031,2122230.278648031,2.122230278648031
220,1,10,04:00:00,-4.2,,-9.3,,68,,30.0,,28,,16.1,,100.46,,,,-12.0,,Snow,1.3012599819583917,7.7777840000000005,1422153.1798227099,1422153.1798227099,1.4221531798227098
221,1,10,05:00:00,-4.7,,-9.7,,68,,32.0,,28,,16.1,,100.54,,,,-12.0,,,1.3047218075574916,7.7777840000000005,1425936.6253693425,1425936.6253693425,1.4259366253693424
222,1,10,06:00:00,-4.7,,-9.6,,69,,32.0,,34,,16.1,,100.56,,,,-13.0,,Snow,1.3049813503877197,9.444452,2553578.8047843543,2553578.8047843543,2.553578804784354
223,1,10,07:00:00,-5.0,,-10.4,,66,,32.0,,32,,16.1,,100.63,,,,-13.0,,,1.3073507494547645,8.888896,2132800.646918325,2132800.646918325,2.132800646918325
224,1,10,08:00:00,-5.7,,-10.7,,68,,31.0,,22,,16.1,,100.76,,,,-13.0,,,1.3124658300218026,6.111116000000001,695767.6889755075,695767.6889755075,0.6957676889755076
225,1,10,09:00:00,-5.7,,-10.7,,68,,32.0,,22,,16.1,,100.88,,,,-13.0,,Snow,1.314028909612936,6.111116000000001,696596.3126622589,696596.3126622589,0.6965963126622589
226,1,10,10:00:00,-5.4,,-11.2,,64,,33.0,,34,,16.1,,100.91,,,,-14.0,,Snow,1.312946940374013,9.444452,2569165.8181547425,2569165.8181547425,2.5691658181547425
227,1,10,11:00:00,-5.2,,-11.6,,61,,31.0,,35,,16.1,,100.97,,,,-14.0,,Snow,1.312747027816631,9.722230000000001,2802162.9423667123,2802162.9423667123,2.8021629423667123
228,1,10,12:00:00,-4.5,,-11.2,,60,,32.0,,26,,16.1,,100.92,,,,-12.0,,,1.3086781329667945,7.222228,1145146.6272122483,1145146.6272122483,1.1451466272122484
229,1,10,13:00:00,-4.3,,-12.1,,55,,30.0,,32,,16.1,,100.94,,,,-12.0,,,1.3079637518850815,8.888896,2133800.693753873,2133800.693753873,2.133800693753873
230,1,10,14:00:00,-4.9,,-12.6,,55,,30.0,,35,,16.1,,100.96,,,,-13.0,,,1.311149036223966,9.722230000000001,2798751.902213281,2798751.902213281,2.798751902213281
231,1,10,15:00:00,-5.3,,-13.0,,55,,32.0,,24,,16.1,,101.03,,,,-13.0,,,1.3140175057748391,6.666672,904363.622670928,904363.622670928,0.9043636226709281
232,1,10,16:00:00,-6.5,,-13.9,,56,,30.0,,34,,16.1,,101.13,,,,-15.0,,,1.3212374284105177,9.444452,2585388.589863355,2585388.589863355,2.5853885898633546
233,1,10,17:00:00,-7.4,,-14.1,,59,,30.0,,28,,16.1,,101.21,,,,-16.0,,,1.3267607050865986,7.7777840000000005,1450023.0405633578,1450023.0405633578,1.4500230405633578
234,1,10,18:00:00,-7.5,,-13.4,,63,,32.0,,22,,16.1,,101.29,,,,-15.0,,Snow,1.3283092583017608,6.111116000000001,704166.6470494199,704166.6470494199,0.7041666470494199
235,1,10,19:00:00,-8.1,,-13.2,,67,,32.0,,15,,16.1,,101.39,,,,-14.0,,,1.3326305445453184,4.166670000000001,223919.4141046396,223919.4141046396,0.2239194141046396
236,1,10,20:00:00,-8.5,,-13.0,,70,,31.0,,22,,16.1,,101.45,,,,-16.0,,,1.3354345310790137,6.111116000000001,707943.9145867141,707943.9145867141,0.7079439145867141
237,1,10,21:00:00,-8.4,,-12.3,,74,,31.0,,22,,16.1,,101.48,,,,-16.0,,Snow,1.335324872744941,6.111116000000001,707885.7822346715,707885.7822346715,0.7078857822346716
238,1,10,22:00:00,-8.5,,-12.3,,74,,33.0,,11,,16.1,,101.51,,,,-14.0,,Snow,1.3362243395744768,3.0555580000000004,0.0,0.0,0.0
239,1,10,23:00:00,-8.9,,-13.1,,72,,33.0,,15,,16.1,,101.55,,,,-15.0,,,1.338774342531447,4.166670000000001,224951.74497163208,224951.74497163208,0.2249517449716321
240,1,11,00:00:00,-9.1,,-14.5,,65,,32.0,,13,,16.1,,101.56,,,,-15.0,,,1.3399203073293782,3.611114,0.0,0.0,0.0
241,1,11,01:00:00,-9.8,,-16.2,,60,,32.0,,28,,16.1,,101.58,,,,-19.0,,,1.343746464488692,7.7777840000000005,1468586.8572335942,1468586.8572335942,1.4685868572335943
242,1,11,02:00:00,-10.5,,-16.9,,60,,33.0,,26,,16.1,,101.63,,,,-20.0,,,1.3479909274891833,7.222228,1179546.9223799708,1179546.9223799708,1.1795469223799708
243,1,11,03:00:00,-11.0,,-16.9,,62,,32.0,,28,,16.1,,101.67,,,,-21.0,,,1.351093517644797,7.7777840000000005,1476616.4863262798,1476616.4863262798,1.4766164863262798
244,1,11,04:00:00,-11.4,,-16.9,,64,,33.0,,24,,16.1,,101.72,,,,-20.0,,,1.3538236918147868,6.666672,931759.9598228995,931759.9598228995,0.9317599598228995
245,1,11,05:00:00,-11.8,,-17.1,,65,,32.0,,30,,16.1,,101.77,,,,-22.0,,,1.3565622231278265,8.333340000000002,1823524.8738226136,1823524.8738226136,1.8235248738226135
246,1,11,06:00:00,-11.6,,-16.6,,67,,33.0,,22,,16.1,,101.84,,,,-20.0,,,1.356457262355837,6.111116000000001,719088.5378003987,719088.5378003987,0.7190885378003986
247,1,11,07:00:00,-11.6,,-16.4,,68,,33.0,,24,,16.1,,101.89,,,,-21.0,,,1.3571232370525945,6.666672,934030.8494201204,934030.8494201204,0.9340308494201204
248,1,11,08:00:00,-11.8,,-16.4,,69,,34.0,,28,,16.1,,101.99,,,,-22.0,,,1.3594947542184046,7.7777840000000005,1485798.2374546116,1485798.2374546116,1.4857982374546115
249,1,11,09:00:00,-11.4,,-17.3,,62,,33.0,,18,,16.1,,102.14,,,,-19.0,,,1.3594136048167746,5.000004000000001,394709.2788414884,394709.2788414884,0.39470927884148843
250,1,11,10:00:00,-11.1,,-17.8,,58,,34.0,,17,,16.1,,102.24,,,,-19.0,,,1.3591867293442654,4.722226,332455.94111043104,332455.94111043104,0.33245594111043103
251,1,11,11:00:00,-10.3,,-20.1,,45,,34.0,,13,,16.1,,102.25,,,,-17.0,,,1.3551824978544877,3.611114,0.0,0.0,0.0
252,1,11,12:00:00,-9.2,,-19.6,,43,,31.0,,15,,16.1,,102.21,,,,-16.0,,,1.3490068990926407,4.166670000000001,226671.10228289413,226671.10228289413,0.22667110228289414
253,1,11,13:00:00,-8.6,,-19.7,,41,,33.0,,11,,16.1,,102.2,,,,-14.0,,,1.3458156638787193,3.0555580000000004,0.0,0.0,0.0
254,1,11,14:00:00,-7.9,,-20.0,,38,,30.0,,11,,16.1,,102.15,,,,-13.0,,,1.3416073447584476,3.0555580000000004,0.0,0.0,0.0
255,1,11,15:00:00,-7.3,,-20.0,,36,,34.0,,8,,16.1,,102.18,,,,-11.0,,,1.3389725770409644,2.222224,0.0,0.0,0.0
256,1,11,16:00:00,-7.5,,-19.6,,38,,33.0,,5,,16.1,,102.17,,,,-10.0,,,1.3398495105211858,1.3888900000000002,0.0,0.0,0.0
257,1,11,17:00:00,-7.7,,-19.1,,40,,32.0,,5,,16.1,,102.19,,,,-10.0,,,1.3411214795356103,1.3888900000000002,0.0,0.0,0.0
258,1,11,18:00:00,-7.6,,-18.7,,41,,,M,4,,16.1,,102.23,,,,-10.0,,,1.3411411986001784,1.111112,0.0,0.0,0.0
259,1,11,19:00:00,-7.2,,-17.8,,43,,,M,4,,16.1,,102.26,,,,-9.0,,,1.3395170396594829,1.111112,0.0,0.0,0.0
260,1,11,20:00:00,-7.3,,-17.3,,45,,32.0,,11,,16.1,,102.28,,,,-12.0,,,1.340282982773046,3.0555580000000004,0.0,0.0,0.0
261,1,11,21:00:00,-7.4,,-15.4,,53,,32.0,,9,,16.1,,102.27,,,,-12.0,,,1.3406562326766767,2.5000020000000003,0.0,0.0,0.0
262,1,11,22:00:00,-7.1,,-14.7,,55,,32.0,,8,,16.1,,102.32,,,,-11.0,,,1.3397992088545905,2.222224,0.0,0.0,0.0
263,1,11,23:00:00,-6.8,,-14.2,,56,,31.0,,5,,16.1,,102.26,,,,-9.0,,,1.3375053752485058,1.3888900000000002,0.0,0.0,0.0
264,1,12,00:00:00,-6.6,,-13.8,,57,,31.0,,5,,16.1,,102.26,,,,-9.0,,,1.3365018071560288,1.3888900000000002,0.0,0.0,0.0
265,1,12,01:00:00,-6.3,,-12.7,,61,,,,0,,16.1,,102.26,,,,,,,1.334999275613414,0.0,0.0,0.0,0.0
266,1,12,02:00:00,-6.0,,-12.4,,61,,,,0,,16.1,,102.3,,,,,,,1.3340217302750852,0.0,0.0,0.0,0.0
267,1,12,03:00:00,-5.7,,-12.5,,59,,31.0,,8,,16.1,,102.35,,,,-9.0,,,1.3331766346043221,2.222224,0.0,0.0,0.0
268,1,12,04:00:00,-5.8,,-13.0,,57,,31.0,,8,,16.1,,102.33,,,,-10.0,,,1.3334146873093369,2.222224,0.0,0.0,0.0
269,1,12,05:00:00,-5.7,,-12.7,,58,,8.0,,5,,16.1,,102.35,,,,-8.0,,,1.3331766346043221,1.3888900000000002,0.0,0.0,0.0
270,1,12,06:00:00,-5.8,,-13.0,,57,,8.0,,11,,16.1,,102.4,,,,-11.0,,,1.3343268247872189,3.0555580000000004,0.0,0.0,0.0
271,1,12,07:00:00,-5.9,,-13.6,,55,,6.0,,11,,16.1,,102.45,,,,-11.0,,,1.3354778757298404,3.0555580000000004,0.0,0.0,0.0
272,1,12,08:00:00,-6.1,,-12.0,,64,,6.0,,13,,16.1,,102.49,,,,-11.0,,,1.3369998533396348,3.611114,0.0,0.0,0.0
273,1,12,09:00:00,-6.1,,-11.7,,65,,6.0,,11,,16.1,,102.59,,,,-11.0,,,1.3383043707104414,3.0555580000000004,0.0,0.0,0.0
274,1,12,10:00:00,-5.6,,-11.0,,66,,7.0,,15,,16.1,,102.66,,,,-11.0,,,1.3367147903305365,4.166670000000001,224605.68227328447,224605.68227328447,0.22460568227328448
275,1,12,11:00:00,-5.3,,-10.9,,65,,7.0,,17,,16.1,,102.66,,,,-11.0,,,1.3352176298410865,4.722226,326593.1193502868,326593.1193502868,0.3265931193502868
276,1,12,12:00:00,-5.1,,-11.3,,62,,8.0,,17,,16.1,,102.6,,,,-11.0,,,1.3334415942346978,4.722226,326158.70252129633,326158.70252129633,0.32615870252129636
277,1,12,13:00:00,-4.7,,-10.7,,63,,8.0,,18,,16.1,,102.56,,,,-11.0,,,1.3309356334105464,5.000004000000001,386440.62571282126,386440.62571282126,0.3864406257128213
278,1,12,14:00:00,-4.8,,-11.2,,61,,8.0,,17,,16.1,,102.53,,,,-11.0,,,1.331042144139739,4.722226,325571.79902802,325571.79902802,0.32557179902802
279,1,12,15:00:00,-4.4,,-11.2,,60,,8.0,,21,,16.1,,102.49,,,,-11.0,,,1.3285425519417653,5.833338,612550.0249059122,612550.0249059122,0.6125500249059123
280,1,12,16:00:00,-4.7,,-11.8,,58,,8.0,,17,,16.1,,102.47,,,,-11.0,,,1.329767690674519,4.722226,325260.06877268886,325260.06877268886,0.32526006877268887
281,1,12,17:00:00,-4.8,,-12.8,,54,,7.0,,18,,16.1,,102.48,,,,-11.0,,,1.3303930452690966,5.000004000000001,386283.0838335427,386283.0838335427,0.3862830838335427
282,1,12,18:00:00,-5.1,,-12.6,,56,,6.0,,18,,16.1,,102.53,,,,-11.0,,,1.3325318387610485,5.000004000000001,386904.08809141396,386904.08809141396,0.38690408809141397
283,1,12,19:00:00,-5.3,,-13.3,,54,,4.0,,15,,16.1,,102.57,,,,-11.0,,,1.3340470708435637,4.166670000000001,224157.4303650842,224157.4303650842,0.2241574303650842
284,1,12,20:00:00,-5.4,,-12.4,,58,,3.0,,13,,16.1,,102.54,,,,-11.0,,,1.3341549823203973,3.611114,0.0,0.0,0.0
285,1,12,21:00:00,-5.9,,-13.1,,57,,2.0,,18,,16.1,,102.49,,,,-12.0,,,1.3359992921771726,5.000004000000001,387910.8722168966,387910.8722168966,0.38791087221689663
286,1,12,22:00:00,-6.4,,-15.0,,51,,3.0,,21,,16.1,,102.5,,,,-13.0,,,1.3386341067319092,5.833338,617202.9297970708,617202.9297970708,0.6172029297970708
287,1,12,23:00:00,-6.4,,-15.5,,49,,2.0,,22,,16.1,,102.48,,,,-14.0,,,1.3383729098330346,6.111116000000001,709501.6153269962,709501.6153269962,0.7095016153269962
288,1,13,00:00:00,-6.3,,-16.2,,46,,3.0,,18,,16.1,,102.45,,,,-13.0,,,1.3374797162780583,5.000004000000001,388340.7172082736,388340.7172082736,0.38834071720827357
289,1,13,01:00:00,-6.5,,-15.8,,48,,3.0,,21,,16.1,,102.39,,,,-14.0,,,1.337699004202046,5.833338,616771.7828404903,616771.7828404903,0.6167717828404904
290,1,13,02:00:00,-6.8,,-15.4,,51,,4.0,,22,,16.1,,102.41,,,,-14.0,,,1.339467293948753,6.111116000000001,710081.7729887255,710081.7729887255,0.7100817729887254
291,1,13,03:00:00,-7.3,,-14.7,,56,,4.0,,26,,16.1,,102.43,,,,-15.0,,,1.3422485913711684,7.222228,1174522.1445738676,1174522.1445738676,1.1745221445738676
292,1,13,04:00:00,-8.0,,-14.3,,61,,4.0,,24,,16.1,,102.39,,,,-16.0,,,1.3452666018120896,6.666672,925870.6007539751,925870.6007539751,0.9258706007539751
293,1,13,05:00:00,-8.8,,-14.3,,65,,4.0,,22,,16.1,,102.37,,,,-17.0,,,1.3490742016179338,6.111116000000001,715174.6110606133,715174.6110606133,0.7151746110606133
294,1,13,06:00:00,-9.3,,-14.5,,66,,5.0,,18,,16.1,,102.37,,,,-17.0,,,1.3516307189603973,5.000004000000001,392449.4976734969,392449.4976734969,0.3924494976734969
295,1,13,07:00:00,-9.0,,-13.8,,69,,4.0,,18,,16.1,,102.39,,,,-16.0,,,1.3503594149932825,5.000004000000001,392080.37125732,392080.37125732,0.39208037125732
296,1,13,08:00:00,-9.3,,-13.3,,73,,5.0,,21,,16.1,,102.41,,,,-17.0,,Snow,1.3521588544371816,5.833338,623438.7741300975,623438.7741300975,0.6234387741300975
297,1,13,09:00:00,-9.5,,-12.9,,77,,5.0,,24,,16.1,,102.41,,,,-18.0,,Snow,1.353184577065239,6.666672,931320.0934378147,931320.0934378147,0.9313200934378147
298,1,13,10:00:00,-8.8,,-12.5,,75,,5.0,,24,,16.1,,102.45,,,,-17.0,,,1.3501284747070168,6.666672,929216.7517488428,929216.7517488428,0.9292167517488428
299,1,13,11:00:00,-8.0,,-10.9,,80,,5.0,,24,,11.3,,102.43,,,,-16.0,,Snow,1.3457921479012827,6.666672,926232.3042800045,926232.3042800045,0.9262323042800045
300,1,13,12:00:00,-7.2,,-11.1,,74,,5.0,,26,,16.1,,102.32,,,,-15.0,,Snow,1.3403029874629209,7.222228,1172819.6619715416,1172819.6619715416,1.1728196619715416
301,1,13,13:00:00,-5.9,,-10.7,,69,,5.0,,26,,16.1,,102.23,,,,-14.0,,,1.3326100852695129,7.222228,1166088.059464909,1166088.059464909,1.166088059464909
302,1,13,14:00:00,-6.0,,-10.9,,69,,6.0,,26,,16.1,,102.19,,,,-14.0,,,1.3325872983070475,7.222228,1166068.1199453627,1166068.1199453627,1.1660681199453626
303,1,13,15:00:00,-6.0,,-11.0,,68,,7.0,,22,,16.1,,102.18,,,,-13.0,,,1.3324568954008622,6.111116000000001,706365.4028670117,706365.4028670117,0.7063654028670118
304,1,13,16:00:00,-6.0,,-10.6,,70,,5.0,,21,,16.1,,102.17,,,,-13.0,,,1.332326492494677,5.833338,614294.6832734902,614294.6832734902,0.6142946832734901
305,1,13,17:00:00,-6.5,,-10.9,,71,,7.0,,22,,16.1,,102.15,,,,-14.0,,,1.3345634659560406,6.111116000000001,707482.1433514599,707482.1433514599,0.7074821433514599
306,1,13,18:00:00,-6.4,,-10.7,,72,,6.0,,18,,16.1,,102.14,,,,-13.0,,,1.3339325625521679,5.000004000000001,387310.7918903827,387310.7918903827,0.3873107918903827
307,1,13,19:00:00,-6.0,,-10.3,,72,,5.0,,18,,16.1,,102.13,,,,-12.0,,,1.331804880869936,5.000004000000001,386693.01397538884,386693.01397538884,0.38669301397538886
308,1,13,20:00:00,-5.8,,-10.4,,70,,5.0,,15,,16.1,,102.11,,,,-12.0,,,1.3305479695217082,4.166670000000001,223569.48292452027,223569.48292452027,0.22356948292452028
309,1,13,21:00:00,-5.8,,-10.8,,68,,5.0,,15,,16.1,,102.1,,,,-12.0,,,1.330417664167725,4.166670000000001,223547.5879599797,223547.5879599797,0.2235475879599797
310,1,13,22:00:00,-6.1,,-11.9,,64,,4.0,,17,,16.1,,102.09,,,,-12.0,,,1.3317817838564086,4.722226,325752.71428622486,325752.71428622486,0.3257527142862249
311,1,13,23:00:00,-6.0,,-11.0,,68,,5.0,,18,,16.1,,102.07,,,,-12.0,,,1.3310224634328245,5.000004000000001,386465.83703581645,386465.83703581645,0.38646583703581644
312,1,14,00:00:00,-5.8,,-10.3,,71,,5.0,,17,,16.1,,102.0,,,,-12.0,,,1.3291146106278937,4.722226,325100.3259376289,325100.3259376289,0.32510032593762894
313,1,14,01:00:00,-5.6,,-9.7,,73,,5.0,,11,,16.1,,101.93,,,,-10.0,,,1.3272096101538242,3.0555580000000004,0.0,0.0,0.0
314,1,14,02:00:00,-5.7,,-9.3,,76,,5.0,,15,,16.1,,101.89,,,,-11.0,,,1.3271848295049768,4.166670000000001,223004.3808073725,223004.3808073725,0.2230043808073725
315,1,14,03:00:00,-5.1,,-8.5,,77,,6.0,,9,,16.1,,101.89,,,,-9.0,,,1.3242140744305395,2.5000020000000003,0.0,0.0,0.0
316,1,14,04:00:00,-5.1,,-8.2,,79,,6.0,,13,,16.1,,101.85,,,,-10.0,,,1.3236942141598829,3.611114,0.0,0.0,0.0
317,1,14,05:00:00,-5.2,,-8.5,,78,,,M,4,,16.1,,101.8,,,,-7.0,,,1.323538154221383,1.111112,0.0,0.0,0.0
318,1,14,06:00:00,-5.7,,-8.6,,80,,7.0,,13,,16.1,,101.78,,,,-11.0,,,1.3257520065464377,3.611114,0.0,0.0,0.0
319,1,14,07:00:00,-5.3,,-7.9,,82,,7.0,,9,,16.1,,101.8,,,,-9.0,,,1.3240322883092013,2.5000020000000003,0.0,0.0,0.0
320,1,14,08:00:00,-4.8,,-7.4,,82,,7.0,,8,,16.1,,101.81,,,,-8.0,,,1.3216951204024856,2.222224,0.0,0.0,0.0
321,1,14,09:00:00,-4.4,,-7.2,,81,,30.0,,8,,16.1,,101.82,,,,-8.0,,,1.319857572823793,2.222224,0.0,0.0,0.0
322,1,14,10:00:00,-3.5,,-7.0,,77,,,M,4,,16.1,,101.84,,,,-5.0,,,1.3157107248995703,1.111112,0.0,0.0,0.0
323,1,14,11:00:00,-3.0,,-7.4,,72,,26.0,,11,,16.1,,101.81,,,,-7.0,,,1.3128887120488877,3.0555580000000004,0.0,0.0,0.0
324,1,14,12:00:00,-2.9,,-7.6,,70,,24.0,,8,,16.1,,101.71,,,,-6.0,,,1.3111138360633972,2.222224,0.0,0.0,0.0
325,1,14,13:00:00,-2.0,,-7.3,,67,,20.0,,15,,16.1,,101.59,,,,-7.0,,,1.3052202417830885,4.166670000000001,219313.71227672338,219313.71227672338,0.2193137122767234
326,1,14,14:00:00,-2.4,,-7.7,,67,,18.0,,9,,16.1,,101.52,,,,-6.0,,,1.3062478618828168,2.5000020000000003,0.0,0.0,0.0
327,1,14,15:00:00,-2.0,,-7.4,,67,,19.0,,9,,16.1,,101.48,,,,-5.0,,,1.3038069705300503,2.5000020000000003,0.0,0.0,0.0
328,1,14,16:00:00,-2.6,,-6.8,,73,,20.0,,11,,16.1,,101.44,,,,-7.0,,,1.3061833728097343,3.0555580000000004,0.0,0.0,0.0
329,1,14,17:00:00,-2.7,,-6.4,,76,,20.0,,11,,16.1,,101.42,,,,-7.0,,,1.3064087159951887,3.0555580000000004,0.0,0.0,0.0
330,1,14,18:00:00,-2.3,,-6.8,,71,,22.0,,13,,16.1,,101.42,,,,-7.0,,,1.3044793695436545,3.611114,0.0,0.0,0.0
331,1,14,19:00:00,-2.3,,-7.6,,67,,27.0,,18,,16.1,,101.39,,,,-8.0,,,1.3040935050091809,5.000004000000001,378646.94385887095,378646.94385887095,0.37864694385887093
332,1,14,20:00:00,-2.8,,-7.4,,71,,28.0,,18,,16.1,,101.37,,,,-8.0,,,1.306247647712084,5.000004000000001,379272.4048000972,379272.4048000972,0.3792724048000972
333,1,14,21:00:00,-3.4,,-7.8,,72,,27.0,,15,,16.1,,101.39,,,,-9.0,,,1.3094114025272905,4.166670000000001,220017.94516565237,220017.94516565237,0.22001794516565237
334,1,14,22:00:00,-3.1,,-7.3,,73,,26.0,,15,,16.1,,101.37,,,,-8.0,,,1.3076987652618475,4.166670000000001,219730.17393406725,219730.17393406725,0.21973017393406724
335,1,14,23:00:00,-3.0,,-6.5,,77,,24.0,,24,,16.1,,101.38,,,,-10.0,,,1.3073436560997567,6.666672,899770.390965267,899770.390965267,0.899770390965267
336,1,15,00:00:00,-3.0,,-6.3,,78,,23.0,,26,,16.1,,101.35,,,,-10.0,,,1.3069567917312126,7.222228,1143640.3835755954,1143640.3835755954,1.1436403835755955
337,1,15,01:00:00,-2.8,,-6.3,,77,,24.0,,21,,16.1,,101.28,,,,-9.0,,,1.3050879131920672,5.833338,601735.8138523875,601735.8138523875,0.6017358138523875
338,1,15,02:00:00,-2.8,,-6.5,,76,,24.0,,17,,16.1,,101.26,,,,-8.0,,,1.3048301944098413,4.722226,319160.3779718442,319160.3779718442,0.3191603779718442
339,1,15,03:00:00,-2.6,,-6.1,,77,,23.0,,15,,16.1,,101.22,,,,-8.0,,,1.3033505618671264,4.166670000000001,218999.55346274524,218999.55346274524,0.21899955346274524
340,1,15,04:00:00,-2.1,,-6.0,,75,,24.0,,17,,16.1,,101.21,,,,-7.0,,,1.3008177730188661,4.722226,318178.9430439798,318178.9430439798,0.3181789430439798
341,1,15,05:00:00,-1.6,,-5.5,,75,,24.0,,18,,16.1,,101.17,,,,-7.0,,,1.297909441470131,5.000004000000001,376851.38491260214,376851.38491260214,0.3768513849126021
342,1,15,06:00:00,-1.7,,-5.2,,77,,26.0,,15,,16.1,,101.16,,,,-7.0,,,1.2982592436722293,4.166670000000001,218144.06880355894,218144.06880355894,0.21814406880355894
343,1,15,07:00:00,-1.2,,-4.4,,79,,26.0,,13,,16.1,,101.15,,,,-5.0,,,1.2957441976776587,3.611114,0.0,0.0,0.0
344,1,15,08:00:00,-1.3,,-3.8,,83,,24.0,,17,,16.1,,101.16,,,,-6.0,,Snow,1.2963489854508983,4.722226,317085.8813296059,317085.8813296059,0.31708588132960586
345,1,15,09:00:00,-1.2,,-3.4,,85,,24.0,,18,,12.9,,101.16,,,,-6.0,,Snow,1.2958722989329903,5.000004000000001,376259.89527406753,376259.89527406753,0.37625989527406756
346,1,15,10:00:00,-0.6,,-3.0,,84,,24.0,,21,,12.9,,101.15,,,,-6.0,,Snow,1.2928917063233878,5.833338,596112.5187533724,596112.5187533724,0.5961125187533723
347,1,15,11:00:00,-0.4,,-2.9,,83,,24.0,,28,,12.9,,101.15,,,,-7.0,,,1.2919436647422156,7.7777840000000005,1411971.3327384081,1411971.3327384081,1.411971332738408
348,1,15,12:00:00,0.2,,-2.7,,81,,23.0,,26,,16.1,,101.03,,,,,,,1.2875785217552247,7.222228,1126683.6086855747,1126683.6086855747,1.1266836086855747
349,1,15,13:00:00,0.3,,-2.9,,79,,23.0,,22,,16.1,,100.94,,,,,,,1.2859610703759523,6.111116000000001,681716.919085873,681716.919085873,0.6817169190858731
350,1,15,14:00:00,0.5,,-3.1,,77,,24.0,,21,,16.1,,100.91,,,,,,,1.2846392957615274,5.833338,592307.5865832937,592307.5865832937,0.5923075865832937
351,1,15,15:00:00,0.0,,-3.0,,80,,23.0,,28,,16.1,,100.9,,,,-6.0,,,1.2868632844545291,7.7777840000000005,1406418.961128572,1406418.961128572,1.406418961128572
352,1,15,16:00:00,0.1,,-3.3,,78,,24.0,,26,,14.5,,100.87,,,,,,,1.2860098618100362,7.222228,1125310.967391872,1125310.967391872,1.125310967391872
353,1,15,17:00:00,0.0,,-3.2,,79,,23.0,,37,,16.1,,100.78,,,,-7.0,,,1.285332822669251,10.277786,3241372.7657000935,3241372.7657000935,3.2413727657000933
354,1,15,18:00:00,-0.6,,-3.1,,83,,24.0,,34,,11.3,,100.77,,,,-8.0,,,1.288034574851288,9.444452,2520417.467416266,2520417.467416266,2.520417467416266
355,1,15,19:00:00,-1.4,,-3.3,,87,,22.0,,41,,11.3,,100.75,,,,-9.0,,Snow,1.2915700058985968,11.388898000000001,4431775.269344202,4000000.0,4.0
356,1,15,20:00:00,-1.3,,-4.0,,82,,23.0,,43,,16.1,,100.67,,,,-9.0,,,1.2900697149598848,11.944454,5106540.203835191,4000000.0,4.0
357,1,15,21:00:00,-0.8,,-3.8,,80,,22.0,,35,,16.1,,100.55,,,,-8.0,,,1.2861663534980576,9.722230000000001,2745424.378896105,2745424.378896105,2.745424378896105
358,1,15,22:00:00,-0.8,,-4.9,,74,,23.0,,46,,16.1,,100.48,,,,-9.0,,,1.2852709617054683,12.777788000000001,6228398.612424285,4000000.0,4.0
359,1,15,23:00:00,-0.8,,-4.3,,77,,25.0,,41,,16.1,,100.45,,,,-9.0,,,1.284887222365787,11.388898000000001,4408844.576733017,4000000.0,4.0
360,1,16,00:00:00,-1.0,,-4.0,,80,,24.0,,41,,16.1,,100.39,,,,-9.0,,,1.2850634289656355,11.388898000000001,4409449.195954536,4000000.0,4.0
361,1,16,01:00:00,-1.4,,-3.1,,88,,25.0,,37,,4.8,,100.36,,,,-9.0,,"Freezing Rain,Fog",1.286570380069312,10.277786,3244493.65764481,3244493.65764481,3.24449365764481
362,1,16,02:00:00,-1.2,,-3.4,,85,,24.0,,39,,16.1,,100.35,,,,-9.0,,,1.2854960972511424,10.833342000000002,3796407.233415694,3796407.233415694,3.796407233415694
363,1,16,03:00:00,-1.4,,-3.6,,85,,24.0,,39,,16.1,,100.34,,,,-9.0,,,1.2863139890011435,10.833342000000002,3798822.682332649,3798822.682332649,3.798822682332649
364,1,16,04:00:00,-1.3,,-3.9,,83,,24.0,,37,,16.1,,100.32,,,,-9.0,,,1.2855845217520179,10.277786,3242007.5044523003,3242007.5044523003,3.2420075044523005
365,1,16,05:00:00,-1.2,,-3.6,,84,,23.0,,34,,16.1,,100.3,,,,-8.0,,,1.2848555909744852,9.444452,2514196.852963697,2514196.852963697,2.514196852963697
366,1,16,06:00:00,-0.9,,-3.0,,86,,23.0,,35,,16.1,,100.33,,,,-8.0,,Snow,1.2838236524322255,9.722230000000001,2740423.6971405074,2740423.6971405074,2.7404236971405074
367,1,16,07:00:00,-0.4,,-2.5,,86,,23.0,,37,,12.9,,100.37,,,,-8.0,,Snow,1.2819810739513215,10.277786,3232920.2724468634,3232920.2724468634,3.2329202724468633
368,1,16,08:00:00,0.0,,-2.4,,84,,24.0,,39,,6.4,,100.44,,,,-7.0,,Snow,1.2809965142776303,10.833342000000002,3783118.784400156,3783118.784400156,3.783118784400156
369,1,16,09:00:00,0.1,,-1.4,,90,,24.0,,32,,16.1,,100.5,,,,,,"Rain,Snow",1.2812926649341592,8.888896,2090289.714373117,2090289.714373117,2.090289714373117
370,1,16,10:00:00,0.0,,-5.2,,68,,29.0,,34,,16.1,,100.68,,,,-7.0,,,1.2840574378481862,9.444452,2512635.0322482637,2512635.0322482637,2.5126350322482636
371,1,16,11:00:00,-0.6,,-7.9,,58,,29.0,,43,,16.1,,100.84,,,,-8.0,,,1.2889293095961485,11.944454,5102026.086674656,4000000.0,4.0
372,1,16,12:00:00,-1.6,,-10.5,,51,,29.0,,37,,16.1,,100.89,,,,-9.0,,,1.2943173228221956,10.277786,3264030.021156081,3264030.021156081,3.264030021156081
373,1,16,13:00:00,-1.9,,-12.1,,46,,33.0,,28,,16.1,,100.98,,,,-9.0,,,1.2969047124049906,7.7777840000000005,1417393.2851588991,1417393.2851588991,1.417393285158899
374,1,16,14:00:00,-2.6,,-11.7,,50,,32.0,,26,,16.1,,101.12,,,,-9.0,,,1.3020629205295775,7.222228,1139358.0471023337,1139358.0471023337,1.1393580471023337
375,1,16,15:00:00,-3.7,,-14.6,,43,,29.0,,32,,16.1,,101.24,,,,-12.0,,,1.3089299268358723,8.888896,2135376.903168938,2135376.903168938,2.1353769031689382
376,1,16,16:00:00,-4.9,,-13.1,,53,,31.0,,22,,16.1,,101.39,,,,-12.0,,,1.316733367499484,6.111116000000001,698030.0066835529,698030.0066835529,0.6980300066835529
377,1,16,17:00:00,-6.2,,-13.9,,55,,33.0,,21,,16.1,,101.51,,,,-13.0,,,1.324711636892247,5.833338,610783.7080457071,610783.7080457071,0.610783708045707
378,1,16,18:00:00,-7.1,,-15.2,,53,,30.0,,26,,16.1,,101.67,,,,-15.0,,,1.3312879746310224,7.222228,1164931.1588486845,1164931.1588486845,1.1649311588486846
379,1,16,19:00:00,-7.6,,-15.4,,54,,32.0,,22,,16.1,,101.74,,,,-15.0,,,1.334712956525307,6.111116000000001,707561.3916682716,707561.3916682716,0.7075613916682716
380,1,16,20:00:00,-7.8,,-15.1,,56,,31.0,,17,,16.1,,101.81,,,,-14.0,,,1.3366379708310043,4.722226,326940.53357256117,326940.53357256117,0.32694053357256114
381,1,16,21:00:00,-8.2,,-16.2,,53,,31.0,,13,,16.1,,101.85,,,,-14.0,,,1.339181861126841,3.611114,0.0,0.0,0.0
382,1,16,22:00:00,-8.7,,-15.8,,57,,33.0,,8,,16.1,,101.91,,,,-13.0,,,1.3425042802945013,2.222224,0.0,0.0,0.0
383,1,16,23:00:00,-9.2,,-16.0,,58,,31.0,,13,,16.1,,101.94,,,,-15.0,,,1.3454433352265316,3.611114,0.0,0.0,0.0
384,1,17,00:00:00,-9.2,,-16.0,,58,,31.0,,5,,16.1,,101.93,,,,-12.0,,,1.3453113513796386,1.3888900000000002,0.0,0.0,0.0
385,1,17,01:00:00,-9.5,,-16.4,,58,,32.0,,5,,16.1,,101.92,,,,-12.0,,,1.34671000971086,1.3888900000000002,0.0,0.0,0.0
386,1,17,02:00:00,-9.3,,-14.8,,65,,10.0,,9,,16.1,,101.93,,,,-14.0,,,1.3458212287157691,2.5000020000000003,0.0,0.0,0.0
387,1,17,03:00:00,-9.6,,-13.6,,73,,6.0,,15,,16.1,,101.95,,,,-16.0,,,1.3476175506333918,4.166670000000001,226437.65266382636,226437.65266382636,0.22643765266382637
388,1,17,04:00:00,-10.0,,-14.5,,70,,6.0,,11,,16.1,,101.95,,,,-16.0,,,1.3496659907635586,3.0555580000000004,0.0,0.0,0.0
389,1,17,05:00:00,-10.4,,-15.1,,69,,32.0,,5,,16.1,,101.95,,,,-13.0,,,1.351720667818955,1.3888900000000002,0.0,0.0,0.0
390,1,17,06:00:00,-10.2,,-16.0,,63,,31.0,,5,,16.1,,101.97,,,,-13.0,,,1.3509575194607537,1.3888900000000002,0.0,0.0,0.0
391,1,17,07:00:00,-10.6,,-14.6,,73,,6.0,,18,,16.1,,101.94,,,,-18.0,,,1.352617666475121,5.000004000000001,392736.0604535152,392736.0604535152,0.3927360604535152
392,1,17,08:00:00,-9.9,,-13.7,,74,,6.0,,15,,16.1,,101.91,,,,-17.0,,,1.3486239579254733,4.166670000000001,226606.75739590378,226606.75739590378,0.22660675739590377
393,1,17,09:00:00,-7.6,,-10.5,,80,,6.0,,18,,16.1,,101.88,,,,-14.0,,,1.3365495971181274,5.000004000000001,388070.65468899894,388070.65468899894,0.38807065468899893
394,1,17,10:00:00,-6.7,,-9.6,,80,,6.0,,17,,16.1,,101.84,,,,-13.0,,Snow,1.3315120922093042,4.722226,325686.74793413223,325686.74793413223,0.3256867479341322
395,1,17,11:00:00,-5.6,,-9.7,,73,,22.0,,8,,16.1,,101.82,,,,-9.0,,Snow,1.325777322729936,2.222224,0.0,0.0,0.0
396,1,17,12:00:00,-4.8,,-10.6,,64,,13.0,,11,,16.1,,101.69,,,,-9.0,,,1.3201372831129432,3.0555580000000004,0.0,0.0,0.0
397,1,17,13:00:00,-4.7,,-10.7,,63,,11.0,,13,,16.1,,101.53,,,,-10.0,,,1.3175691776537906,3.611114,0.0,0.0,0.0
398,1,17,14:00:00,-4.6,,-10.4,,64,,9.0,,18,,16.1,,101.42,,,,-11.0,,,1.315651600226769,5.000004000000001,382002.8668921191,382002.8668921191,0.3820028668921191
399,1,17,15:00:00,-4.5,,-10.5,,63,,10.0,,17,,16.1,,101.39,,,,-10.0,,,1.3147728488060177,4.722226,321592.3429499097,321592.3429499097,0.3215923429499097
400,1,17,16:00:00,-4.4,,-10.8,,61,,11.0,,13,,16.1,,101.31,,,,-9.0,,,1.313246618569814,3.611114,0.0,0.0,0.0
401,1,17,17:00:00,-4.3,,-11.2,,59,,10.0,,13,,16.1,,101.18,,,,-9.0,,,1.3110736320163716,3.611114,0.0,0.0,0.0
402,1,17,18:00:00,-3.9,,-10.1,,62,,9.0,,15,,16.1,,101.13,,,,-9.0,,,1.308478961135244,4.166670000000001,219861.26878520424,219861.26878520424,0.21986126878520423
403,1,17,19:00:00,-3.8,,-10.1,,62,,8.0,,13,,16.1,,101.07,,,,-9.0,,,1.3072171430010775,3.611114,0.0,0.0,0.0
404,1,17,20:00:00,-3.1,,-9.0,,64,,9.0,,13,,16.1,,100.99,,,,-8.0,,,1.3027966686770638,3.611114,0.0,0.0,0.0
405,1,17,21:00:00,-2.7,,-8.0,,67,,9.0,,11,,16.1,,100.92,,,,-7.0,,,1.2999681287540372,3.0555580000000004,0.0,0.0,0.0
406,1,17,22:00:00,-2.2,,-7.3,,68,,8.0,,17,,16.1,,100.82,,,,-8.0,,,1.2962834805597176,4.722226,317069.8588878217,317069.8588878217,0.31706985888782174
407,1,17,23:00:00,-1.9,,-5.9,,74,,10.0,,8,,16.1,,100.78,,,,-5.0,,Snow,1.294336075620667,2.222224,0.0,0.0,0.0
408,1,18,00:00:00,-2.0,,-5.2,,79,,9.0,,9,,11.3,,100.71,,,,-5.0,,Snow,1.2939140717587836,2.5000020000000003,0.0,0.0,0.0
409,1,18,01:00:00,-2.2,,-4.4,,85,,11.0,,5,,8.1,,100.61,,,,-4.0,,Snow,1.2935834257003886,1.3888900000000002,0.0,0.0,0.0
410,1,18,02:00:00,-2.3,,-3.9,,89,,10.0,,5,,2.4,,100.56,,,,-4.0,,Snow,1.293417919555412,1.3888900000000002,0.0,0.0,0.0
411,1,18,03:00:00,-2.3,,-3.4,,92,,,,0,,8.1,,100.56,,,,,,Snow,1.293417919555412,0.0,0.0,0.0,0.0
412,1,18,04:00:00,-2.3,,-3.1,,94,,,,0,,8.1,,100.52,,,,,,Snow,1.2929034335094474,0.0,0.0,0.0,0.0
413,1,18,05:00:00,-2.0,,-2.8,,94,,29.0,,5,,12.9,,100.51,,,,-4.0,,Snow,1.2913444876623508,1.3888900000000002,0.0,0.0,0.0
414,1,18,06:00:00,-2.1,,-3.4,,91,,30.0,,8,,9.7,,100.52,,,,-5.0,,Snow,1.291949437247865,2.222224,0.0,0.0,0.0
415,1,18,07:00:00,-2.5,,-4.1,,89,,27.0,,11,,11.3,,100.62,,,,-7.0,,Snow,1.2951460052832358,3.0555580000000004,0.0,0.0,0.0
416,1,18,08:00:00,-2.3,,-4.0,,88,,28.0,,11,,11.3,,100.67,,,,-6.0,,Snow,1.2948327561818151,3.0555580000000004,0.0,0.0,0.0
417,1,18,09:00:00,-2.2,,-4.7,,83,,26.0,,11,,14.5,,100.74,,,,-6.0,,,1.2952548882323542,3.0555580000000004,0.0,0.0,0.0
418,1,18,10:00:00,-0.4,,-4.5,,74,,28.0,,8,,16.1,,100.76,,,,-3.0,,,1.2869623693467687,2.222224,0.0,0.0,0.0
419,1,18,11:00:00,0.4,,-4.8,,68,,27.0,,17,,16.1,,100.82,,,,,,,1.2839627455955236,4.722226,314056.217384958,314056.217384958,0.314056217384958
420,1,18,12:00:00,0.1,,-4.1,,73,,23.0,,22,,16.1,,100.82,,,,,,,1.2853724027727556,6.111116000000001,681404.85313453,681404.85313453,0.68140485313453
421,1,18,13:00:00,0.2,,-3.7,,75,,26.0,,24,,16.1,,100.8,,,,,,Rain,1.2846472829152396,6.666672,884149.7662898463,884149.7662898463,0.8841497662898463
422,1,18,14:00:00,0.3,,-4.4,,71,,27.0,,21,,16.1,,100.8,,,,,,Rain,1.2841774905279968,5.833338,592094.6624229894,592094.6624229894,0.5920946624229894
423,1,18,15:00:00,0.1,,-6.1,,63,,27.0,,26,,16.1,,100.91,,,,,,,1.2865198290398607,7.222228,1125757.2094727252,1125757.2094727252,1.125757209472725
424,1,18,16:00:00,-0.3,,-7.2,,60,,28.0,,18,,16.1,,101.02,,,,-5.0,,,1.2898103418926268,5.000004000000001,374499.7902675471,374499.7902675471,0.37449979026754715
425,1,18,17:00:00,-1.1,,-7.9,,60,,28.0,,30,,16.1,,101.09,,,,-8.0,,,1.2944995836798936,8.333340000000002,1740098.7214214006,1740098.7214214006,1.7400987214214005
426,1,18,18:00:00,-1.7,,-9.2,,57,,30.0,,21,,16.1,,101.21,,,,-8.0,,,1.298900929735729,5.833338,598883.1864640262,598883.1864640262,0.5988831864640263
427,1,18,19:00:00,-2.3,,-10.8,,52,,31.0,,26,,16.1,,101.34,,,,-9.0,,,1.303450397451725,7.222228,1140572.1458770495,1140572.1458770495,1.1405721458770495
428,1,18,20:00:00,-2.6,,-11.0,,53,,32.0,,13,,16.1,,101.38,,,,-7.0,,,1.305410788007205,3.611114,0.0,0.0,0.0
429,1,18,21:00:00,-2.8,,-10.9,,54,,28.0,,13,,16.1,,101.39,,,,-7.0,,,1.3065053664943098,3.611114,0.0,0.0,0.0
430,1,18,22:00:00,-3.1,,-10.7,,56,,30.0,,13,,16.1,,101.42,,,,-8.0,,,1.3083437779703715,3.611114,0.0,0.0,0.0
431,1,18,23:00:00,-4.2,,-10.2,,63,,33.0,,17,,16.1,,101.52,,,,-10.0,,Snow,1.314990178861397,4.722226,321645.5017003101,321645.5017003101,0.3216455017003101
432,1,19,00:00:00,-5.3,,-10.5,,67,,36.0,,24,,16.1,,101.55,,,,-13.0,,Snow,1.3207807355383046,6.666672,909018.36961529,909018.36961529,0.9090183696152899
433,1,19,01:00:00,-8.3,,-16.5,,52,,36.0,,28,,16.1,,101.58,,,,-17.0,,,1.3361360446407289,7.7777840000000005,1460269.393439558,1460269.393439558,1.460269393439558
434,1,19,02:00:00,-8.6,,-17.3,,50,,34.0,,17,,16.1,,101.69,,,,-15.0,,,1.3390997540100487,4.722226,327542.68368625006,327542.68368625006,0.32754268368625006
435,1,19,03:00:00,-9.4,,-16.7,,56,,36.0,,17,,16.1,,101.73,,,,-16.0,,,1.3436898141001246,4.722226,328665.4085584505,328665.4085584505,0.3286654085584505
436,1,19,04:00:00,-9.7,,-16.7,,57,,,M,8,,16.1,,101.66,,,,-14.0,,,1.344294281701257,2.222224,0.0,0.0,0.0
437,1,19,05:00:00,-10.2,,-17.2,,57,,6.0,,17,,16.1,,101.65,,,,-17.0,,,1.3467179744354771,4.722226,329406.0940524949,329406.0940524949,0.32940609405249494
438,1,19,06:00:00,-10.6,,-17.0,,60,,2.0,,11,,16.1,,101.76,,,,-16.0,,,1.3502292891947059,3.0555580000000004,0.0,0.0,0.0
439,1,19,07:00:00,-10.2,,-16.6,,60,,3.0,,15,,6.4,,101.81,,,,-17.0,,Snow,1.3488377469481154,4.166670000000001,226642.67996490686,226642.67996490686,0.22664267996490686
440,1,19,08:00:00,-11.2,,-16.2,,67,,5.0,,15,,16.1,,101.79,,,,-18.0,,Snow,1.3537209821997793,4.166670000000001,227463.2008369245,227463.2008369245,0.22746320083692448
441,1,19,09:00:00,-12.2,,-17.1,,67,,2.0,,18,,16.1,,101.74,,,,-20.0,,Snow,1.358241140468654,5.000004000000001,394368.85076597525,394368.85076597525,0.3943688507659753
442,1,19,10:00:00,-13.1,,-17.3,,71,,6.0,,21,,6.4,,101.75,,,,-22.0,,Snow,1.3630758036596142,5.833338,628472.2429552577,628472.2429552577,0.6284722429552576
443,1,19,11:00:00,-13.1,,-16.5,,76,,4.0,,22,,2.4,,101.68,,,,-22.0,,Snow,1.362138061091986,6.111116000000001,722100.0571236252,722100.0571236252,0.7221000571236252
444,1,19,12:00:00,-12.9,,-16.0,,78,,4.0,,18,,2.0,,101.53,,,,-21.0,,Snow,1.3590833649996545,5.000004000000001,394613.3928509418,394613.3928509418,0.3946133928509418
445,1,19,13:00:00,-13.1,,-16.2,,78,,3.0,,21,,2.4,,101.43,,,,-22.0,,Snow,1.3587889804933138,5.833338,626495.720913531,626495.720913531,0.626495720913531
446,1,19,14:00:00,-13.5,,-16.7,,77,,4.0,,18,,2.0,,101.38,,,,-22.0,,Snow,1.360211394936835,5.000004000000001,394940.9192795715,394940.9192795715,0.3949409192795715
447,1,19,15:00:00,-12.7,,-16.1,,76,,3.0,,13,,3.2,,101.28,,,,-20.0,,Snow,1.3546957854923223,3.611114,0.0,0.0,0.0
448,1,19,16:00:00,-12.9,,-16.0,,78,,2.0,,11,,2.0,,101.18,,,,-19.0,,Snow,1.354398255399045,3.0555580000000004,0.0,0.0,0.0
449,1,19,17:00:00,-13.2,,-16.3,,78,,5.0,,21,,2.4,,101.08,,,,-22.0,,Snow,1.354621175625034,5.833338,624574.0745408677,624574.0745408677,0.6245740745408677
450,1,19,18:00:00,-13.1,,-16.2,,78,,2.0,,22,,4.8,,101.04,,,,-22.0,,Snow,1.3535644147593848,6.111116000000001,717554.9741519579,717554.9741519579,0.7175549741519579
451,1,19,19:00:00,-13.3,,-16.5,,77,,1.0,,17,,2.4,,100.92,,,,-21.0,,Snow,1.3529974232115813,4.722226,330942.04198918614,330942.04198918614,0.33094204198918614
452,1,19,20:00:00,-13.5,,-16.7,,77,,1.0,,15,,4.8,,100.86,,,,-21.0,,Snow,1.3532345757874253,4.166670000000001,227381.47087859747,227381.47087859747,0.22738147087859747
453,1,19,21:00:00,-13.6,,-16.7,,78,,36.0,,13,,1.6,,100.75,,,,-21.0,,Snow,1.35227951879385,3.611114,0.0,0.0,0.0
454,1,19,22:00:00,-13.7,,-16.9,,77,,1.0,,18,,2.0,,100.58,,,,-22.0,,Snow,1.3505180874324847,5.000004000000001,392126.44221308175,392126.44221308175,0.39212644221308174
455,1,19,23:00:00,-14.1,,-17.2,,78,,36.0,,15,,2.0,,100.57,,,,-22.0,,Snow,1.3524689467205975,4.166670000000001,227252.8236606815,227252.8236606815,0.2272528236606815
456,1,20,00:00:00,-14.5,,-17.5,,78,,35.0,,17,,1.6,,100.43,,,,-23.0,,Snow,1.3526748917013234,4.722226,330863.1510506082,330863.1510506082,0.3308631510506082
457,1,20,01:00:00,-14.6,,-17.8,,77,,35.0,,17,,2.8,,100.31,,,,-23.0,,Snow,1.3515811839176122,4.722226,330595.631038322,330595.631038322,0.330595631038322
458,1,20,02:00:00,-15.4,,-18.6,,77,,35.0,,26,,2.4,,100.25,,,,-26.0,,Snow,1.3549652464930138,7.222228,1185649.735350669,1185649.735350669,1.185649735350669
459,1,20,03:00:00,-15.9,,-18.9,,78,,35.0,,24,,1.6,,100.15,,,,-26.0,,Snow,1.3562445905527711,6.666672,933426.126934967,933426.126934967,0.933426126934967
460,1,20,04:00:00,-16.2,,-19.4,,77,,35.0,,30,,2.0,,100.05,,,,-28.0,,Snow,1.3564722691411812,8.333340000000002,1823403.9554236264,1823403.9554236264,1.8234039554236263
461,1,20,05:00:00,-16.0,,-19.5,,75,,34.0,,26,,2.0,,100.1,,,,-27.0,,Snow,1.3560946344070133,7.222228,1186637.9957394926,1186637.9957394926,1.1866379957394926
462,1,20,06:00:00,-15.8,,-20.0,,71,,34.0,,32,,8.1,,99.99,,,,-27.0,,Snow,1.3535516873421496,8.888896,2208172.455329759,2208172.455329759,2.208172455329759
463,1,20,07:00:00,-15.5,,-19.8,,70,,34.0,,24,,14.5,,100.14,,,,-26.0,,Snow,1.354003818293472,6.666672,931883.9306483159,931883.9306483159,0.931883930648316
464,1,20,08:00:00,-15.4,,-19.9,,69,,34.0,,22,,6.4,,100.21,,,,-25.0,,Snow,1.3544246119806973,6.111116000000001,718010.9840678319,718010.9840678319,0.7180109840678319
465,1,20,09:00:00,-15.2,,-20.0,,67,,32.0,,28,,16.1,,100.3,,,,-26.0,,Snow,1.354589951407293,7.7777840000000005,1480437.7552981344,1480437.7552981344,1.4804377552981345
466,1,20,10:00:00,-15.4,,-20.8,,64,,32.0,,26,,16.1,,100.33,,,,-26.0,,,1.3560465155176467,7.222228,1186595.8897529438,1186595.8897529438,1.1865958897529438
467,1,20,11:00:00,-16.5,,-22.0,,63,,33.0,,39,,8.1,,100.39,,,,-29.0,,Haze,1.3626729483459878,10.833342000000002,4024330.72254588,4000000.0,4.0
468,1,20,12:00:00,-15.6,,-22.1,,58,,32.0,,35,,9.7,,100.44,,,,-28.0,,Haze,1.358587450494796,9.722230000000001,2900012.970566603,2900012.970566603,2.900012970566603
469,1,20,13:00:00,-14.1,,-20.7,,58,,33.0,,35,,16.1,,100.41,,,,-26.0,,,1.35031726101437,9.722230000000001,2882359.5933375233,2882359.5933375233,2.8823595933375232
470,1,20,14:00:00,-13.9,,-20.5,,58,,31.0,,35,,16.1,,100.44,,,,-25.0,,,1.3496786803276168,9.722230000000001,2880996.492071084,2880996.492071084,2.880996492071084
471,1,20,15:00:00,-14.1,,-20.3,,60,,33.0,,35,,11.3,,100.5,,,,-26.0,,,1.351527584224123,9.722230000000001,2884943.124493786,2884943.124493786,2.884943124493786
472,1,20,16:00:00,-14.8,,-20.8,,61,,33.0,,28,,9.7,,100.65,,,,-25.0,,Haze,1.3572122227175145,7.7777840000000005,1483303.6479974373,1483303.6479974373,1.4833036479974373
473,1,20,17:00:00,-15.8,,-21.5,,62,,32.0,,30,,16.1,,100.75,,,,-27.0,,,1.3638397089681127,8.333340000000002,1833307.4523305534,1833307.4523305534,1.8333074523305535
474,1,20,18:00:00,-16.5,,-22.4,,61,,33.0,,24,,16.1,,100.9,,,,-27.0,,Snow,1.3695955821108694,6.666672,942614.8561860366,942614.8561860366,0.9426148561860366
475,1,20,19:00:00,-17.4,,-24.0,,57,,33.0,,28,,16.1,,101.04,,,,-29.0,,,1.376322291527578,7.7777840000000005,1504189.1324522502,1504189.1324522502,1.5041891324522503
476,1,20,20:00:00,-18.4,,-26.9,,48,,32.0,,28,,16.1,,101.1,,,,-30.0,,,1.382545432292453,7.7777840000000005,1510990.4323845913,1510990.4323845913,1.5109904323845913
477,1,20,21:00:00,-19.6,,-28.0,,48,,32.0,,26,,16.1,,101.17,,,,-31.0,,,1.3900505179696867,7.222228,1216350.7758007408,1216350.7758007408,1.2163507758007408
478,1,20,22:00:00,-20.6,,-28.1,,52,,33.0,,28,,16.1,,101.23,,,,-33.0,,Snow,1.3963822278738405,7.7777840000000005,1526112.7316233732,1526112.7316233732,1.5261127316233731
479,1,20,23:00:00,-21.0,,-28.3,,53,,34.0,,35,,12.9,,101.27,,,,-35.0,,Snow,1.3991500305178979,9.722230000000001,2986597.023837373,2986597.023837373,2.986597023837373
480,1,21,00:00:00,-20.9,,-28.4,,52,,32.0,,28,,16.1,,101.32,,,,-33.0,,,1.399285890493657,7.7777840000000005,1529286.1582138762,1529286.1582138762,1.5292861582138761
481,1,21,01:00:00,-20.9,,-28.4,,52,,33.0,,22,,16.1,,101.37,,,,-32.0,,,1.399976418469621,6.111116000000001,742159.0223668036,742159.0223668036,0.7421590223668036
482,1,21,02:00:00,-20.9,,-28.4,,52,,33.0,,28,,16.1,,101.39,,,,-33.0,,,1.4002526296600066,7.7777840000000005,1530342.7120144584,1530342.7120144584,1.5303427120144584
483,1,21,03:00:00,-21.0,,-27.8,,55,,32.0,,22,,16.1,,101.48,,,,-32.0,,,1.402051398212267,6.111116000000001,743259.0158502056,743259.0158502056,0.7432590158502056
484,1,21,04:00:00,-20.6,,-27.5,,55,,34.0,,21,,16.1,,101.55,,,,-31.0,,,1.4007963572121753,5.833338,645864.0276476751,645864.0276476751,0.6458640276476751
485,1,21,05:00:00,-20.3,,-27.2,,55,,33.0,,24,,16.1,,101.64,,,,-32.0,,,1.4003743493827223,6.666672,963798.1336910836,963798.1336910836,0.9637981336910837
486,1,21,06:00:00,-20.1,,-26.8,,56,,33.0,,22,,16.1,,101.7,,,,-31.0,,,1.4000935667249386,6.111116000000001,742221.1252947467,742221.1252947467,0.7422211252947467
487,1,21,07:00:00,-20.3,,-27.2,,55,,32.0,,26,,16.1,,101.84,,,,-32.0,,,1.403129906937588,7.222228,1227795.7734554615,1227795.7734554615,1.2277957734554614
488,1,21,08:00:00,-20.4,,-27.7,,53,,32.0,,24,,16.1,,101.96,,,,-32.0,,,1.405339040972573,6.666672,967215.0489543197,967215.0489543197,0.9672150489543196
489,1,21,09:00:00,-19.2,,-26.8,,52,,32.0,,22,,16.1,,102.07,,,,-30.0,,,1.4002073286319316,6.111116000000001,742281.4330431935,742281.4330431935,0.7422814330431935
490,1,21,10:00:00,-17.7,,-25.1,,53,,33.0,,15,,16.1,,102.16,,,,-26.0,,,1.3932127043788043,4.166670000000001,234098.9209384232,234098.9209384232,0.2340989209384232
491,1,21,11:00:00,-16.0,,-23.5,,53,,32.0,,28,,16.1,,102.24,,,,-27.0,,,1.3850860681495807,7.7777840000000005,1513767.105311663,1513767.105311663,1.5137671053116628
492,1,21,12:00:00,-14.5,,-21.5,,56,,31.0,,26,,16.1,,102.24,,,,-25.0,,,1.3770534793143812,7.222228,1204977.838021052,1204977.838021052,1.204977838021052
493,1,21,13:00:00,-13.2,,-20.5,,55,,31.0,,30,,16.1,,102.2,,,,-24.0,,,1.3696308285405467,8.333340000000002,1841092.0201207912,1841092.0201207912,1.8410920201207912
494,1,21,14:00:00,-11.7,,-20.2,,50,,30.0,,28,,16.1,,102.19,,,,-21.0,,,1.3616396892053078,7.7777840000000005,1488142.4470318141,1488142.4470318141,1.488142447031814
495,1,21,15:00:00,-10.8,,-19.5,,49,,28.0,,21,,16.1,,102.22,,,,-19.0,,,1.3573669073828472,5.833338,625840.0468307091,625840.0468307091,0.625840046830709
496,1,21,16:00:00,-10.9,,-18.7,,53,,27.0,,24,,16.1,,102.29,,,,-20.0,,,1.3588143683759832,6.666672,935194.759066157,935194.759066157,0.935194759066157
497,1,21,17:00:00,-11.2,,-19.5,,51,,30.0,,22,,16.1,,102.35,,,,-20.0,,,1.3611685089708951,6.111116000000001,721586.0757130606,721586.0757130606,0.7215860757130605
498,1,21,18:00:00,-11.6,,-19.6,,52,,29.0,,22,,16.1,,102.41,,,,-20.0,,,1.3640493738988735,6.111116000000001,723113.2870791323,723113.2870791323,0.7231132870791322
499,1,21,19:00:00,-12.0,,-20.0,,52,,29.0,,22,,16.1,,102.47,,,,-21.0,,,1.3669390639922445,6.111116000000001,724645.1768640927,724645.1768640927,0.7246451768640927
500,1,21,20:00:00,-12.1,,-19.6,,54,,32.0,,15,,16.1,,102.48,,,,-19.0,,,1.3675961451751084,4.166670000000001,229794.6184805912,229794.6184805912,0.22979461848059118
501,1,21,21:00:00,-12.6,,-19.2,,58,,28.0,,13,,16.1,,102.56,,,,-19.0,,,1.3712902352295575,3.611114,0.0,0.0,0.0
502,1,21,22:00:00,-12.8,,-18.7,,62,,31.0,,9,,16.1,,102.58,,,,-18.0,,,1.372611273523472,2.5000020000000003,0.0,0.0,0.0
503,1,21,23:00:00,-13.1,,-18.4,,65,,32.0,,8,,16.1,,102.62,,,,-18.0,,,1.3747306041429936,2.222224,0.0,0.0,0.0
504,1,22,00:00:00,-13.2,,-17.9,,68,,28.0,,9,,16.1,,102.64,,,,-19.0,,,1.3755274779002125,2.5000020000000003,0.0,0.0,0.0
505,1,22,01:00:00,-13.5,,-17.7,,71,,31.0,,9,,16.1,,102.71,,,,-19.0,,,1.3780559516074407,2.5000020000000003,0.0,0.0,0.0
506,1,22,02:00:00,-13.6,,-17.5,,73,,31.0,,8,,16.1,,102.82,,,,-19.0,,,1.380063326276761,2.222224,0.0,0.0,0.0
507,1,22,03:00:00,-13.1,,-17.3,,71,,32.0,,13,,16.1,,102.87,,,,-20.0,,,1.3780796847416659,3.611114,0.0,0.0,0.0
508,1,22,04:00:00,-13.2,,-17.1,,73,,32.0,,4,,16.1,,102.82,,,,-16.0,,,1.3779397435473484,1.111112,0.0,0.0,0.0
509,1,22,05:00:00,-13.4,,-16.8,,76,,,,0,,16.1,,102.8,,,,,,,1.3787324814720248,0.0,0.0,0.0,0.0
510,1,22,06:00:00,-13.2,,-16.4,,77,,31.0,,9,,16.1,,102.82,,,,-19.0,,,1.3779397435473484,2.5000020000000003,0.0,0.0,0.0
511,1,22,07:00:00,-13.9,,-17.6,,74,,,,0,,16.1,,102.79,,,,,,,1.381257183899599,0.0,0.0,0.0,0.0
512,1,22,08:00:00,-12.4,,-15.3,,79,,7.0,,11,,16.1,,102.73,,,,-18.0,,,1.3725096916880029,3.0555580000000004,0.0,0.0,0.0
513,1,22,09:00:00,-10.9,,-14.2,,77,,6.0,,13,,16.1,,102.7,,,,-17.0,,Snow,1.3642607843602843,3.611114,0.0,0.0,0.0
514,1,22,10:00:00,-9.9,,-12.6,,81,,8.0,,8,,16.1,,102.71,,,,-14.0,,Snow,1.359210742012809,2.222224,0.0,0.0,0.0
515,1,22,11:00:00,-8.1,,-10.4,,84,,14.0,,13,,16.1,,102.65,,,,-14.0,,,1.3491914922337207,3.611114,0.0,0.0,0.0
516,1,22,12:00:00,-7.2,,-11.1,,74,,13.0,,13,,16.1,,102.53,,,,-13.0,,,1.3430538047749538,3.611114,0.0,0.0,0.0
517,1,22,13:00:00,-7.1,,-11.0,,74,,10.0,,11,,16.1,,102.4,,,,-12.0,,,1.3408467453744144,3.0555580000000004,0.0,0.0,0.0
518,1,22,14:00:00,-6.7,,-10.6,,74,,9.0,,17,,16.1,,102.26,,,,-13.0,,,1.3370034028802382,4.722226,327029.9179472148,327029.9179472148,0.3270299179472148
519,1,22,15:00:00,-5.8,,-10.6,,69,,9.0,,21,,16.1,,102.1,,,,-13.0,,,1.330417664167725,5.833338,613414.5813621841,613414.5813621841,0.6134145813621842
520,1,22,16:00:00,-4.3,,-10.2,,64,,10.0,,17,,16.1,,101.94,,,,-10.0,,,1.3209215857654568,4.722226,323096.3188851935,323096.3188851935,0.3230963188851935
521,1,22,17:00:00,-3.6,,-10.3,,60,,11.0,,17,,16.1,,101.76,,,,-9.0,,,1.3151649040180675,4.722226,321688.23932799755,321688.23932799755,0.32168823932799756
522,1,22,18:00:00,-3.1,,-9.8,,60,,10.0,,17,,16.1,,101.66,,,,-9.0,,,1.3114398389712874,4.722226,320777.0915224107,320777.0915224107,0.3207770915224107
523,1,22,19:00:00,-2.3,,-9.1,,60,,10.0,,11,,16.1,,101.5,,,,-6.0,,,1.3055083416355842,3.0555580000000004,0.0,0.0,0.0
524,1,22,20:00:00,-1.2,,-10.1,,51,,13.0,,13,,16.1,,101.44,,,,-5.0,,,1.299459134082271,3.611114,0.0,0.0,0.0
525,1,22,21:00:00,-0.8,,-8.6,,56,,15.0,,9,,16.1,,101.3,,,,-4.0,,,1.295759836990087,2.5000020000000003,0.0,0.0,0.0
526,1,22,22:00:00,-0.2,,-8.0,,56,,17.0,,17,,16.1,,101.2,,,,-5.0,,,1.291635172157451,4.722226,315932.88652700954,315932.88652700954,0.3159328865270095
527,1,22,23:00:00,0.3,,-6.8,,59,,19.0,,17,,16.1,,101.14,,,,,,,1.2885090415873173,4.722226,315168.23759519623,315168.23759519623,0.31516823759519624
528,1,23,00:00:00,1.1,,-5.2,,63,,22.0,,34,,16.1,,101.07,,,,,,Rain,1.2838612122783597,9.444452,2512251.0593616655,2512251.0593616655,2.5122510593616654
529,1,23,01:00:00,1.2,,-2.8,,75,,22.0,,34,,16.1,,100.95,,,,,,,1.2818694799733608,9.444452,2508353.650868173,2508353.650868173,2.508353650868173
530,1,23,02:00:00,0.2,,-1.7,,87,,22.0,,24,,4.8,,100.86,,,,,,Snow,1.2854119539169748,6.666672,884676.045912638,884676.045912638,0.8846760459126379
531,1,23,03:00:00,0.4,,-0.9,,91,,21.0,,21,,6.4,,100.8,,,,,,"Rain,Snow",1.2837080416190119,5.833338,591878.2139995118,591878.2139995118,0.5918782139995118
532,1,23,04:00:00,0.4,,-0.6,,93,,22.0,,21,,4.0,,100.75,,,,,,Snow,1.2830712816777325,5.833338,591584.6236155834,591584.6236155834,0.5915846236155834
533,1,23,05:00:00,0.5,,-0.2,,95,,21.0,,11,,8.1,,100.69,,,,,,Fog,1.2818385758619384,3.0555580000000004,0.0,0.0,0.0
534,1,23,06:00:00,0.7,,0.1,,96,,21.0,,8,,16.1,,100.63,,,,,,Rain,1.28013913991709,2.222224,0.0,0.0,0.0
535,1,23,07:00:00,1.1,,0.5,,96,,21.0,,11,,16.1,,100.51,,,,,,Rain,1.276747704027881,3.0555580000000004,0.0,0.0,0.0
536,1,23,08:00:00,1.7,,1.0,,95,,20.0,,9,,16.1,,100.41,,,,,,Rain,1.2726930560879481,2.5000020000000003,0.0,0.0,0.0
537,1,23,09:00:00,1.9,,1.0,,94,,20.0,,8,,16.1,,100.32,,,,,,Rain,1.2706277121915508,2.222224,0.0,0.0,0.0
538,1,23,10:00:00,2.0,,1.3,,95,,,,0,,16.1,,100.25,,,,,,Rain,1.2692796375924924,0.0,0.0,0.0,0.0
539,1,23,11:00:00,1.8,,1.1,,95,,8.0,,5,,9.7,,100.17,,,,,,"Rain,Fog",1.2691892896616663,1.3888900000000002,0.0,0.0,0.0
540,1,23,12:00:00,2.1,,1.7,,97,,,M,4,,9.7,,100.01,,,,,,"Rain,Fog",1.2657809301009155,1.111112,0.0,0.0,0.0
541,1,23,13:00:00,2.8,,2.4,,97,,11.0,,9,,4.8,,99.78,,,,,,"Rain,Fog",1.2596664137465738,2.5000020000000003,0.0,0.0,0.0
542,1,23,14:00:00,3.1,,2.8,,98,,8.0,,8,,6.4,,99.61,,,,,,"Rain,Fog",1.2561546264426475,2.222224,0.0,0.0,0.0
543,1,23,15:00:00,4.2,,3.9,,98,,16.0,,8,,9.7,,99.52,,,,,,"Rain,Fog",1.2500421176394265,2.222224,0.0,0.0,0.0
544,1,23,16:00:00,3.8,,3.5,,98,,19.0,,5,,4.8,,99.41,,,,,,"Rain,Fog",1.2504638845532898,1.3888900000000002,0.0,0.0,0.0
545,1,23,17:00:00,3.1,,2.8,,98,,23.0,,9,,11.3,,99.35,,,,,,,1.2528758371355992,2.5000020000000003,0.0,0.0,0.0
546,1,23,18:00:00,3.5,,3.2,,98,,22.0,,15,,6.4,,99.32,,,,,,"Rain,Fog",1.250686566418027,4.166670000000001,210150.52095809462,210150.52095809462,0.2101505209580946
547,1,23,19:00:00,3.7,,3.4,,98,,22.0,,18,,4.8,,99.27,,,,,,"Rain,Fog",1.2491538844775516,5.000004000000001,362695.0820244536,362695.0820244536,0.3626950820244536
548,1,23,20:00:00,3.8,,3.5,,98,,22.0,,22,,2.4,,99.33,,,,,,"Rain,Fog",1.2494575762265192,6.111116000000001,662365.5948967625,662365.5948967625,0.6623655948967625
549,1,23,21:00:00,2.6,,2.4,,99,,23.0,,11,,0.6,,99.28,,,,,,Fog,1.2542632458893836,3.0555580000000004,0.0,0.0,0.0
550,1,23,22:00:00,3.1,,3.0,,99,,28.0,,9,,3.6,,99.27,,,,,,Fog,1.2518669788872767,2.5000020000000003,0.0,0.0,0.0
551,1,23,23:00:00,3.1,,3.0,,99,,25.0,,9,,4.8,,99.25,,,,,,Fog,1.251614764325196,2.5000020000000003,0.0,0.0,0.0
552,1,24,00:00:00,2.6,,2.5,,99,,25.0,,11,,6.4,,99.24,,,,,,Fog,1.2537579021158585,3.0555580000000004,0.0,0.0,0.0
553,1,24,01:00:00,3.7,,3.4,,98,,29.0,,17,,11.3,,99.23,,,,,,Rain,1.2486505485716475,4.722226,305418.8834257651,305418.8834257651,0.30541888342576506
554,1,24,02:00:00,3.4,,2.7,,95,,28.0,,17,,12.9,,99.23,,,,,,Rain,1.250005078184996,4.722226,305750.20024018467,305750.20024018467,0.3057502002401847
555,1,24,03:00:00,1.9,,0.7,,92,,30.0,,13,,12.9,,99.23,,,,,,Rain,1.2568220482532655,3.611114,0.0,0.0,0.0
556,1,24,04:00:00,1.2,,0.0,,92,,28.0,,13,,9.7,,99.23,,,,,,"Rain,Fog",1.2600288112704963,3.611114,0.0,0.0,0.0
557,1,24,05:00:00,0.3,,-0.4,,95,,25.0,,11,,2.0,,99.24,,,,,,Snow,1.2643033150793492,3.0555580000000004,0.0,0.0,0.0
558,1,24,06:00:00,0.3,,-0.1,,97,,26.0,,13,,2.0,,99.26,,,,,,Snow,1.2645581122004856,3.611114,0.0,0.0,0.0
559,1,24,07:00:00,0.4,,0.0,,97,,29.0,,17,,16.1,,99.25,,,,,,,1.2639684834393545,4.722226,309165.63752685074,309165.63752685074,0.3091656375268507
560,1,24,08:00:00,0.5,,-1.4,,87,,28.0,,22,,16.1,,99.34,,,,,,,1.2646523401144598,6.111116000000001,670420.6813706444,670420.6813706444,0.6704206813706444
561,1,24,09:00:00,0.0,,-3.4,,78,,29.0,,24,,16.1,,99.34,,,,-6.0,,,1.2669672812459158,6.666672,871981.6252352343,871981.6252352343,0.8719816252352343
562,1,24,10:00:00,-0.1,,-4.0,,75,,29.0,,17,,16.1,,99.37,,,,-5.0,,,1.2678140424152504,4.722226,310106.2580470672,310106.2580470672,0.3101062580470672
563,1,24,11:00:00,-0.2,,-4.8,,71,,30.0,,18,,16.1,,99.33,,,,-5.0,,,1.2677680004980199,5.000004000000001,368099.7390653114,368099.7390653114,0.3680997390653114
564,1,24,12:00:00,-0.3,,-4.2,,75,,29.0,,22,,16.1,,99.36,,,,-6.0,,,1.2686156758112395,6.111116000000001,672521.7348649945,672521.7348649945,0.6725217348649946
565,1,24,13:00:00,-0.1,,-5.5,,67,,30.0,,24,,16.1,,99.37,,,,-6.0,,,1.2678140424152504,6.666672,872564.4028582652,872564.4028582652,0.8725644028582652
566,1,24,14:00:00,0.1,,-5.7,,65,,28.0,,24,,16.1,,99.38,,,,,,,1.267013582499072,6.666672,872013.4917582101,872013.4917582101,0.8720134917582101
567,1,24,15:00:00,-0.1,,-5.9,,65,,27.0,,34,,16.1,,99.43,,,,-7.0,,,1.2685795535609172,9.444452,2482348.0114819272,2482348.0114819272,2.4823480114819274
568,1,24,16:00:00,-0.3,,-4.9,,71,,27.0,,22,,16.1,,99.44,,,,-6.0,,,1.2696371055019087,6.111116000000001,673063.2177433077,673063.2177433077,0.6730632177433077
569,1,24,17:00:00,-0.3,,-6.0,,66,,29.0,,21,,16.1,,99.51,,,,-6.0,,,1.2705308564812443,5.833338,585802.6200544536,585802.6200544536,0.5858026200544536
570,1,24,18:00:00,-0.9,,-5.3,,72,,28.0,,22,,16.1,,99.61,,,,-7.0,,Snow,1.2746105254537425,6.111116000000001,675699.739645089,675699.739645089,0.675699739645089
571,1,24,19:00:00,-1.8,,-4.6,,81,,28.0,,18,,8.1,,99.7,,,,-7.0,,Snow,1.279993549962292,5.000004000000001,371649.4591765311,371649.4591765311,0.37164945917653114
572,1,24,20:00:00,-1.4,,-5.8,,72,,26.0,,28,,16.1,,99.73,,,,-8.0,,Snow,1.2784940614220057,7.7777840000000005,1397272.1977504836,1397272.1977504836,1.3972721977504836
573,1,24,21:00:00,-1.6,,-6.0,,72,,26.0,,28,,16.1,,99.78,,,,-8.0,,Snow,1.2800771381821656,7.7777840000000005,1399002.349818156,1399002.349818156,1.399002349818156
574,1,24,22:00:00,-1.6,,-6.4,,70,,24.0,,28,,16.1,,99.8,,,,-8.0,,,1.2803337180855896,7.7777840000000005,1399282.7672063739,1399282.7672063739,1.399282767206374
575,1,24,23:00:00,-1.9,,-5.6,,76,,24.0,,28,,16.1,,99.78,,,,-9.0,,Snow,1.281492891699049,7.7777840000000005,1400549.6335230242,1400549.6335230242,1.400549633523024
576,1,25,00:00:00,-2.2,,-5.0,,81,,23.0,,34,,16.1,,99.78,,,,-10.0,,Snow,1.2829117803039936,9.444452,2510393.217205066,2510393.217205066,2.5103932172050656
577,1,25,01:00:00,-2.0,,-4.8,,81,,24.0,,34,,11.3,,99.77,,,,-10.0,,Snow,1.281837026505549,9.444452,2508290.14613876,2508290.14613876,2.50829014613876
578,1,25,02:00:00,-2.3,,-6.0,,76,,24.0,,35,,16.1,,99.77,,,,-10.0,,Snow,1.283256820147608,9.722230000000001,2739213.748545054,2739213.748545054,2.739213748545054
579,1,25,03:00:00,-2.3,,-6.3,,74,,24.0,,37,,16.1,,99.79,,,,-10.0,,Snow,1.2835140631705906,10.277786,3236786.1890544635,3236786.1890544635,3.2367861890544636
580,1,25,04:00:00,-2.7,,-7.4,,70,,25.0,,39,,16.1,,99.81,,,,-11.0,,Snow,1.2856700250786806,10.833342000000002,3796920.8879215065,3796920.8879215065,3.7969208879215066
581,1,25,05:00:00,-3.5,,-7.7,,73,,25.0,,41,,16.1,,99.86,,,,-12.0,,Snow,1.2901303317799597,11.388898000000001,4426835.303159053,4000000.0,4.0
582,1,25,06:00:00,-3.7,,-7.9,,73,,25.0,,39,,16.1,,99.89,,,,-12.0,,,1.291475803947405,10.833342000000002,3814066.8761045667,3814066.8761045667,3.8140668761045666
583,1,25,07:00:00,-3.7,,-8.4,,70,,25.0,,34,,16.1,,99.95,,,,-12.0,,,1.2922515427424481,9.444452,2528669.2020668215,2528669.2020668215,2.5286692020668213
584,1,25,08:00:00,-4.3,,-9.6,,67,,26.0,,52,,16.1,,100.04,,,,-14.0,,,1.2963017013927438,14.444456,9074533.967090074,4000000.0,4.0
585,1,25,09:00:00,-4.8,,-9.7,,69,,26.0,,43,,16.1,,100.17,,,,-14.0,,,1.3004046774454079,11.944454,5147449.544489774,4000000.0,4.0
586,1,25,10:00:00,-5.0,,-11.1,,63,,26.0,,48,,16.1,,100.29,,,,-15.0,,,1.3029335850424162,13.333344,7173881.516129443,4000000.0,4.0
587,1,25,11:00:00,-5.1,,-11.9,,59,,26.0,,50,,16.1,,100.4,,,,-15.0,,,1.3048492793485738,13.888900000000001,8120421.4871756295,4000000.0,4.0
588,1,25,12:00:00,-5.3,,-11.5,,62,,25.0,,41,,16.1,,100.49,,,,-15.0,,,1.306994151789702,11.388898000000001,4484700.273795198,4000000.0,4.0
589,1,25,13:00:00,-7.2,,-10.3,,79,,29.0,,39,,4.0,,100.56,,,,-17.0,,Snow,1.3172485185620733,10.833342000000002,3890180.4640004076,3890180.4640004076,3.8901804640004074
590,1,25,14:00:00,-6.7,,-10.3,,76,,28.0,,24,,4.8,,100.61,,,,-14.0,,Snow,1.3154303966729979,6.666672,905336.0352342937,905336.0352342937,0.9053360352342936
591,1,25,15:00:00,-6.4,,-12.2,,64,,27.0,,46,,14.5,,100.67,,,,-17.0,,Snow,1.3147345904848906,12.777788000000001,6371178.796583455,4000000.0,4.0
592,1,25,16:00:00,-6.7,,-13.9,,57,,26.0,,41,,16.1,,100.77,,,,-16.0,,,1.3175223245476393,11.388898000000001,4520825.683526705,4000000.0,4.0
593,1,25,17:00:00,-7.2,,-14.1,,58,,25.0,,39,,16.1,,100.82,,,,-17.0,,,1.320654292376971,10.833342000000002,3900238.6076026354,3900238.6076026354,3.900238607602635
594,1,25,18:00:00,-7.8,,-13.9,,62,,26.0,,37,,16.1,,100.87,,,,-18.0,,,1.3242969464465515,10.277786,3339633.1130775358,3339633.1130775358,3.339633113077536
595,1,25,19:00:00,-8.1,,-13.6,,65,,26.0,,35,,16.1,,100.93,,,,-18.0,,,1.326584484278124,9.722230000000001,2831700.0937686083,2831700.0937686083,2.831700093768608
596,1,25,20:00:00,-8.2,,-13.7,,65,,25.0,,32,,16.1,,100.96,,,,-17.0,,,1.3274796337689332,8.888896,2165638.733793563,2165638.733793563,2.165638733793563
597,1,25,21:00:00,-8.5,,-14.0,,65,,23.0,,45,,16.1,,100.99,,,,-19.0,,,1.329379332613796,12.500010000000001,6031074.214457588,4000000.0,4.0
598,1,25,22:00:00,-8.8,,-14.3,,65,,25.0,,39,,16.1,,100.98,,,,-19.0,,,1.3307562066951153,10.833342000000002,3930072.210886813,3930072.210886813,3.930072210886813
599,1,25,23:00:00,-9.3,,-14.7,,65,,26.0,,41,,16.1,,100.97,,,,-20.0,,,1.3331459772729444,11.388898000000001,4574435.257493743,4000000.0,4.0
600,1,26,00:00:00,-9.6,,-15.2,,64,,25.0,,41,,16.1,,101.0,,,,-20.0,,,1.33506005506594,11.388898000000001,4581003.04908681,4000000.0,4.0
601,1,26,01:00:00,-9.9,,-15.2,,66,,25.0,,32,,16.1,,100.98,,,,-20.0,,,1.3363168214239456,8.888896,2180055.6449059104,2180055.6449059104,2.1800556449059103
602,1,26,02:00:00,-10.3,,-15.3,,67,,26.0,,32,,16.1,,101.01,,,,-20.0,,,1.3387480108389418,8.888896,2184021.866181453,2184021.866181453,2.184021866181453
603,1,26,03:00:00,-10.6,,-15.6,,67,,27.0,,30,,16.1,,101.04,,,,-20.0,,,1.3406757800730453,8.333340000000002,1802169.9196796585,1802169.9196796585,1.8021699196796586
604,1,26,04:00:00,-10.8,,-15.3,,70,,25.0,,28,,16.1,,101.06,,,,-20.0,,,1.3419634089230144,7.7777840000000005,1466638.1473849192,1466638.1473849192,1.4666381473849193
605,1,26,05:00:00,-11.0,,-15.4,,71,,25.0,,30,,16.1,,101.11,,,,-21.0,,,1.3436516727556351,8.333340000000002,1806170.1890635549,1806170.1890635549,1.8061701890635549
606,1,26,06:00:00,-11.0,,-15.1,,72,,25.0,,35,,16.1,,101.15,,,,-22.0,,,1.3441832331048609,9.722230000000001,2869266.0228846865,2869266.0228846865,2.8692660228846867
607,1,26,07:00:00,-11.4,,-15.8,,70,,26.0,,32,,16.1,,101.24,,,,-22.0,,,1.3474352198125148,8.888896,2198194.1033767727,2198194.1033767727,2.198194103376773
608,1,26,08:00:00,-11.4,,-15.7,,71,,25.0,,30,,16.1,,101.29,,,,-21.0,,,1.3481006856460849,8.333340000000002,1812150.6634799712,1812150.6634799712,1.8121506634799713
609,1,26,09:00:00,-11.4,,-15.7,,71,,26.0,,24,,16.1,,101.33,,,,-20.0,,,1.348633058312941,6.666672,928187.5415734802,928187.5415734802,0.9281875415734803
610,1,26,10:00:00,-10.6,,-16.2,,64,,26.0,,21,,16.1,,101.33,,,,-19.0,,,1.3445237212470476,5.833338,619918.4495315809,619918.4495315809,0.6199184495315809
611,1,26,11:00:00,-10.0,,-16.6,,59,,28.0,,13,,16.1,,101.33,,,,-16.0,,,1.3414581151944227,3.611114,0.0,0.0,0.0
612,1,26,12:00:00,-9.7,,-17.4,,54,,27.0,,11,,16.1,,101.28,,,,-15.0,,,1.3392693768513015,3.0555580000000004,0.0,0.0,0.0
613,1,26,13:00:00,-8.4,,-16.6,,52,,24.0,,9,,16.1,,101.21,,,,-13.0,,,1.331772076966057,2.5000020000000003,0.0,0.0,0.0
614,1,26,14:00:00,-8.2,,-17.4,,48,,22.0,,13,,16.1,,101.17,,,,-14.0,,,1.3302408334825968,3.611114,0.0,0.0,0.0
615,1,26,15:00:00,-7.7,,-16.4,,50,,24.0,,17,,16.1,,101.13,,,,-14.0,,,1.3272102478269523,4.722226,324634.52038381214,324634.52038381214,0.32463452038381213
616,1,26,16:00:00,-7.8,,-15.1,,56,,22.0,,22,,16.1,,101.12,,,,-15.0,,,1.327579133782842,6.111116000000001,703779.591601901,703779.591601901,0.703779591601901
617,1,26,17:00:00,-7.6,,-13.5,,63,,23.0,,22,,16.1,,101.07,,,,-15.0,,,1.325923319402524,6.111116000000001,702901.8071153157,702901.8071153157,0.7029018071153157
618,1,26,18:00:00,-7.8,,-13.0,,66,,23.0,,22,,16.1,,101.05,,,,-15.0,,Snow,1.3266601213286806,6.111116000000001,703292.4024067651,703292.4024067651,0.7032924024067652
619,1,26,19:00:00,-7.3,,-12.5,,67,,21.0,,18,,16.1,,101.04,,,,-14.0,,,1.3240339516952344,5.000004000000001,384436.7044610463,384436.7044610463,0.38443670446104633
620,1,26,20:00:00,-7.1,,-11.7,,70,,17.0,,17,,16.1,,100.95,,,,-14.0,,Snow,1.3218601459526087,4.722226,323325.88992467744,323325.88992467744,0.3233258899246774
621,1,26,21:00:00,-6.8,,-10.7,,74,,19.0,,15,,14.5,,100.9,,,,-13.0,,Snow,1.3197173123662649,4.166670000000001,221749.62789077387,221749.62789077387,0.22174962789077388
622,1,26,22:00:00,-6.1,,-9.2,,79,,16.0,,13,,8.1,,100.79,,,,-11.0,,Snow,1.3148230580359235,3.611114,0.0,0.0,0.0
623,1,26,23:00:00,-5.8,,-8.6,,81,,16.0,,11,,8.1,,100.64,,,,-11.0,,Snow,1.3113930824861886,3.0555580000000004,0.0,0.0,0.0
624,1,27,00:00:00,-5.2,,-7.3,,85,,15.0,,8,,11.3,,100.5,,,,-9.0,,Snow,1.3066363899729763,2.222224,0.0,0.0,0.0
625,1,27,01:00:00,-4.0,,-5.9,,87,,21.0,,17,,8.1,,100.33,,,,-10.0,,Snow,1.2986104007975978,4.722226,317639.0216385105,317639.0216385105,0.31763902163851054
626,1,27,02:00:00,-4.1,,-6.1,,86,,22.0,,13,,4.0,,100.13,,,,-9.0,,Snow,1.2965034255600285,3.611114,0.0,0.0,0.0
627,1,27,03:00:00,-4.5,,-5.8,,91,,5.0,,5,,1.6,,99.92,,,,-7.0,,Snow,1.2957106524578093,1.3888900000000002,0.0,0.0,0.0
628,1,27,04:00:00,-2.2,,-3.1,,93,,17.0,,30,,1.6,,99.67,,,,-9.0,,Snow,1.2814974658538687,8.333340000000002,1722620.9494004005,1722620.9494004005,1.7226209494004006
629,1,27,05:00:00,-2.3,,-3.3,,93,,17.0,,21,,1.6,,99.51,,,,-8.0,,Snow,1.2799126608488371,5.833338,590128.2809003423,590128.2809003423,0.5901282809003423
630,1,27,06:00:00,-5.7,,-6.8,,92,,31.0,,32,,1.6,,99.56,,,,-14.0,,Snow,1.296835034110467,8.888896,2115645.40032633,2115645.40032633,2.11564540032633
631,1,27,07:00:00,-6.7,,-8.7,,86,,28.0,,24,,9.7,,99.84,,,,-14.0,,Snow,1.3053629937762856,6.666672,898407.2135751105,898407.2135751105,0.8984072135751106
632,1,27,08:00:00,-7.1,,-10.8,,75,,27.0,,34,,12.9,,100.03,,,,-16.0,,,1.3098134759746354,9.444452,2563034.275912074,2563034.275912074,2.563034275912074
633,1,27,09:00:00,-6.7,,-10.8,,73,,25.0,,35,,16.1,,100.16,,,,-16.0,,,1.3095468495255687,9.722230000000001,2795331.907273,2795331.907273,2.7953319072730003
634,1,27,10:00:00,-6.7,,-10.8,,73,,27.0,,30,,9.7,,100.2,,,,-15.0,,Snow,1.310069831494229,8.333340000000002,1761028.6380127366,1761028.6380127366,1.7610286380127367
635,1,27,11:00:00,-7.9,,-10.6,,81,,26.0,,37,,1.6,,100.33,,,,-18.0,,Snow,1.3177040127226143,10.277786,3323006.9478992,3323006.9478992,3.3230069478992
636,1,27,12:00:00,-8.1,,-14.4,,61,,27.0,,46,,2.0,,100.4,,,,-19.0,,Snow,1.319618371361574,12.777788000000001,6394845.505738195,4000000.0,4.0
637,1,27,13:00:00,-8.1,,-15.2,,57,,26.0,,46,,4.0,,100.46,,,,-19.0,,Haze,1.3204069879181644,12.777788000000001,6398667.126558358,4000000.0,4.0
638,1,27,14:00:00,-8.4,,-15.7,,56,,28.0,,39,,8.1,,100.47,,,,-19.0,,Haze,1.3220347848313383,10.833342000000002,3904315.564001525,3904315.564001525,3.904315564001525
639,1,27,15:00:00,-9.1,,-17.3,,52,,27.0,,41,,16.1,,100.52,,,,-20.0,,,1.3261991856316373,11.388898000000001,4550598.671589279,4000000.0,4.0
640,1,27,16:00:00,-9.6,,-16.6,,57,,28.0,,35,,16.1,,100.61,,,,-20.0,,Snow,1.3299048726750913,9.722230000000001,2838787.7268944825,2838787.7268944825,2.8387877268944823
641,1,27,17:00:00,-10.0,,-17.7,,54,,28.0,,32,,12.9,,100.72,,,,-20.0,,,1.3333826247151117,8.888896,2175268.8219042053,2175268.8219042053,2.175268821904205
642,1,27,18:00:00,-10.6,,-17.6,,57,,27.0,,22,,16.1,,100.86,,,,-19.0,,,1.3382874027926301,6.111116000000001,709456.2861195361,709456.2861195361,0.7094562861195362
643,1,27,19:00:00,-10.9,,-17.9,,57,,28.0,,28,,16.1,,100.9,,,,-20.0,,,1.3403496897950602,7.7777840000000005,1464874.5061287677,1464874.5061287677,1.4648745061287678
644,1,27,20:00:00,-11.2,,-17.1,,62,,27.0,,22,,16.1,,100.93,,,,-20.0,,,1.3422837089441373,6.111116000000001,711574.8179943253,711574.8179943253,0.7115748179943253
645,1,27,21:00:00,-11.6,,-16.4,,68,,28.0,,21,,16.1,,101.01,,,,-20.0,,,1.3454020823896613,5.833338,620323.434783275,620323.434783275,0.620323434783275
646,1,27,22:00:00,-11.8,,-16.2,,70,,27.0,,24,,16.1,,101.03,,,,-21.0,,,1.3466982549140643,6.666672,926855.9262766715,926855.9262766715,0.9268559262766715
647,1,27,23:00:00,-11.8,,-16.6,,68,,26.0,,28,,16.1,,101.01,,,,-22.0,,,1.3464316611785572,7.7777840000000005,1471521.521377491,1471521.521377491,1.471521521377491
648,1,28,00:00:00,-12.2,,-17.3,,66,,27.0,,24,,16.1,,101.04,,,,-21.0,,,1.348896056938793,6.666672,928368.5485912617,928368.5485912617,0.9283685485912617
649,1,28,01:00:00,-12.0,,-17.9,,62,,26.0,,26,,16.1,,101.05,,,,-22.0,,,1.3479964127687742,7.222228,1179551.722222854,1179551.722222854,1.179551722222854
650,1,28,02:00:00,-12.2,,-18.3,,61,,29.0,,26,,16.1,,101.07,,,,-22.0,,,1.3492965605186442,7.222228,1180689.404417685,1180689.404417685,1.180689404417685
651,1,28,03:00:00,-13.3,,-18.9,,63,,31.0,,15,,16.1,,101.13,,,,-21.0,,,1.3558128161849705,4.166670000000001,227814.68778301432,227814.68778301432,0.2278146877830143
652,1,28,04:00:00,-13.6,,-18.9,,65,,35.0,,9,,16.1,,101.12,,,,-19.0,,,1.3572457066048051,2.5000020000000003,0.0,0.0,0.0
653,1,28,05:00:00,-16.2,,-20.7,,69,,7.0,,24,,16.1,,101.17,,,,-27.0,,,1.3716571661070796,6.666672,944033.727367782,944033.727367782,0.944033727367782
654,1,28,06:00:00,-16.6,,-22.1,,63,,3.0,,18,,16.1,,101.23,,,,-26.0,,,1.3746105306939718,5.000004000000001,399121.7458289763,399121.7458289763,0.39912174582897625
655,1,28,07:00:00,-17.3,,-23.9,,57,,5.0,,17,,16.1,,101.25,,,,-26.0,,,1.3786437597119923,4.722226,337215.1145208701,337215.1145208701,0.3372151145208701
656,1,28,08:00:00,-17.3,,-24.6,,54,,4.0,,22,,16.1,,101.33,,,,-28.0,,,1.379733058485098,6.111116000000001,731427.5614240855,731427.5614240855,0.7314275614240855
657,1,28,09:00:00,-16.6,,-23.5,,56,,5.0,,21,,16.1,,101.3,,,,-26.0,,,1.3755610664753466,5.833338,634228.81284273,634228.81284273,0.6342288128427299
658,1,28,10:00:00,-15.6,,-21.9,,59,,5.0,,24,,16.1,,101.27,,,,-26.0,,,1.3698143280725605,6.666672,942765.4066083027,942765.4066083027,0.9427654066083028
659,1,28,11:00:00,-14.5,,-18.8,,70,,5.0,,30,,2.0,,101.12,,,,-25.0,,Snow,1.3619683864267433,8.333340000000002,1830791.9737605664,1830791.9737605664,1.8307919737605665
660,1,28,12:00:00,-10.6,,-13.1,,82,,7.0,,46,,1.0,,100.94,,,,-22.0,,"Snow,Blowing Snow",1.339348903806148,12.777788000000001,6490459.290349894,4000000.0,4.0
661,1,28,13:00:00,-9.6,,-11.8,,84,,7.0,,54,,0.2,,100.78,,,,-22.0,,Heavy Snow,1.3321520034608458,15.000012000000002,10443432.65192782,4000000.0,4.0
662,1,28,14:00:00,-8.2,,-10.1,,86,,8.0,,41,,0.6,,100.65,,,,-18.0,,Moderate Snow,1.3234035770487633,11.388898000000001,4541006.075815326,4000000.0,4.0
663,1,28,15:00:00,-7.7,,-9.5,,87,,10.0,,35,,0.6,,100.52,,,,-17.0,,Moderate Snow,1.3192047276927248,9.722230000000001,2815947.4163760063,2815947.4163760063,2.8159474163760065
664,1,28,16:00:00,-7.2,,-9.2,,86,,9.0,,39,,0.6,,100.35,,,,-17.0,,Moderate Snow,1.3144977012500403,10.833342000000002,3882056.5787832225,3882056.5787832225,3.8820565787832226
665,1,28,17:00:00,-7.2,,-9.0,,87,,8.0,,43,,0.4,,100.21,,,,-17.0,,Heavy Snow,1.3126638230420182,11.944454,5195975.464544958,4000000.0,4.0
666,1,28,18:00:00,-7.0,,-8.5,,89,,8.0,,52,,0.8,,100.03,,,,-18.0,,Moderate Snow,1.309321342412368,14.444456,9165675.69323682,4000000.0,4.0
667,1,28,19:00:00,-5.6,,-6.8,,91,,9.0,,39,,1.0,,99.98,,,,-15.0,,Snow,1.301819060366716,10.833342000000002,3844613.225931153,3844613.225931153,3.844613225931153
668,1,28,20:00:00,-5.0,,-6.7,,88,,9.0,,39,,1.2,,99.9,,,,-14.0,,Snow,1.2978668376282518,10.833342000000002,3832941.275293217,3832941.275293217,3.832941275293217
669,1,28,21:00:00,-4.8,,-6.2,,90,,9.0,,35,,1.2,,99.76,,,,-13.0,,Snow,1.2950820667061385,9.722230000000001,2764455.6778646545,2764455.6778646545,2.7644556778646545
670,1,28,22:00:00,-4.2,,-5.5,,91,,8.0,,30,,1.6,,99.67,,,,-12.0,,Snow,1.291027099360869,8.333340000000002,1735430.9211379017,1735430.9211379017,1.7354309211379018
671,1,28,23:00:00,-3.3,,-4.4,,92,,8.0,,32,,1.2,,99.56,,,,-11.0,,Snow,1.2853012039015916,8.888896,2096829.2099954681,2096829.2099954681,2.096829209995468
672,1,29,00:00:00,-2.6,,-3.6,,93,,9.0,,24,,1.6,,99.5,,,,-9.0,,Snow,1.2812031308612832,6.666672,881779.3520336765,881779.3520336765,0.8817793520336764
673,1,29,01:00:00,-1.9,,-2.7,,94,,8.0,,21,,2.0,,99.4,,,,-8.0,,Snow,1.276612481808834,5.833338,588606.6700567955,588606.6700567955,0.5886066700567955
674,1,29,02:00:00,-1.2,,-1.9,,95,,9.0,,21,,2.4,,99.33,,,,-7.0,,Snow,1.272429769207334,5.833338,586678.150187802,586678.150187802,0.586678150187802
675,1,29,03:00:00,-0.4,,-1.1,,95,,12.0,,15,,4.0,,99.28,,,,-5.0,,Snow,1.268058991948662,4.166670000000001,213069.57707782628,213069.57707782628,0.21306957707782628
676,1,29,04:00:00,1.3,,0.6,,95,,19.0,,26,,16.1,,99.22,,,,,,,1.2594427663897731,7.222228,1102063.6776657342,1102063.6776657342,1.1020636776657342
677,1,29,05:00:00,-0.5,,-3.2,,82,,22.0,,52,,4.0,,99.24,,,,-9.0,,"Rain,Snow",1.2680129892112526,14.444456,8876503.771418516,4000000.0,4.0
678,1,29,06:00:00,-1.9,,-5.0,,79,,23.0,,45,,4.8,,99.37,,,,-10.0,,Snow,1.2762271862911856,12.500010000000001,5789935.713756599,4000000.0,4.0
679,1,29,07:00:00,-2.8,,-5.5,,82,,23.0,,52,,3.2,,99.47,,,,-12.0,,Snow,1.2817643634006213,14.444456,8972767.867995357,4000000.0,4.0
680,1,29,08:00:00,-4.0,,-7.7,,76,,23.0,,48,,4.8,,99.62,,,,-13.0,,Snow,1.289420593316622,13.333344,7099479.718000855,4000000.0,4.0
681,1,29,09:00:00,-5.2,,-9.3,,73,,25.0,,41,,16.1,,99.78,,,,-14.0,,Snow,1.297275412850782,11.388898000000001,4451352.281288397,4000000.0,4.0
682,1,29,10:00:00,-5.8,,-9.9,,73,,24.0,,46,,8.1,,99.88,,,,-16.0,,Snow,1.301489875583471,12.777788000000001,6306995.160313874,4000000.0,4.0
683,1,29,11:00:00,-6.3,,-9.7,,77,,25.0,,37,,4.8,,99.92,,,,-16.0,,Snow,1.3044506905856865,10.277786,3289584.5092342673,3289584.5092342673,3.2895845092342673
684,1,29,12:00:00,-5.8,,-11.8,,63,,24.0,,41,,12.9,,99.9,,,,-15.0,,,1.301750486291437,11.388898000000001,4466707.6392730335,4000000.0,4.0
685,1,29,13:00:00,-5.8,,-12.6,,59,,26.0,,43,,8.1,,99.87,,,,-15.0,,Haze,1.3013595702294878,11.944454,5151229.338973522,4000000.0,4.0
686,1,29,14:00:00,-5.5,,-13.7,,53,,26.0,,43,,16.1,,99.84,,,,-15.0,,,1.2995104415904777,11.944454,5143909.85102053,4000000.0,4.0
687,1,29,15:00:00,-5.7,,-14.1,,52,,27.0,,24,,16.1,,99.83,,,,-13.0,,,1.3003519631905176,6.666672,894958.4058126997,894958.4058126997,0.8949584058126997
688,1,29,16:00:00,-5.6,,-10.9,,67,,23.0,,35,,12.9,,99.84,,,,-14.0,,Snow,1.299996149099949,9.722230000000001,2774945.1775838626,2774945.1775838626,2.7749451775838625
689,1,29,17:00:00,-6.1,,-10.4,,72,,23.0,,39,,16.1,,99.85,,,,-15.0,,Snow,1.3025605947503418,10.833342000000002,3846803.171512352,3846803.171512352,3.846803171512352
690,1,29,18:00:00,-6.5,,-10.4,,74,,23.0,,52,,4.0,,99.91,,,,-17.0,,Snow,1.3052984423266571,14.444456,9137514.082837967,4000000.0,4.0
691,1,29,19:00:00,-8.1,,-12.8,,69,,25.0,,54,,6.4,,100.01,,,,-20.0,,Snow,1.3144923637437351,15.000012000000002,10304989.548165018,4000000.0,4.0
692,1,29,20:00:00,-9.5,,-14.9,,65,,24.0,,52,,4.0,,100.11,,,,-21.0,,Snow,1.3227937507079495,14.444456,9259986.937729834,4000000.0,4.0
693,1,29,21:00:00,-10.8,,-15.4,,69,,24.0,,54,,3.6,,100.23,,,,-23.0,,"Snow,Blowing Snow",1.3309419401974445,15.000012000000002,10433946.336429985,4000000.0,4.0
694,1,29,22:00:00,-12.0,,-18.1,,61,,25.0,,35,,16.1,,100.22,,,,-23.0,,,1.3369242997297037,9.722230000000001,2853771.2522442187,2853771.2522442187,2.853771252244219
695,1,29,23:00:00,-12.4,,-18.9,,59,,25.0,,34,,16.1,,100.22,,,,-23.0,,,1.3389751903141403,9.444452,2620097.724080441,2620097.724080441,2.620097724080441
696,1,30,00:00:00,-13.0,,-19.2,,60,,25.0,,35,,16.1,,100.26,,,,-24.0,,,1.3425989983469602,9.722230000000001,2865884.3477892326,2865884.3477892326,2.8658843477892324
697,1,30,01:00:00,-13.3,,-19.5,,60,,25.0,,43,,16.1,,100.22,,,,-26.0,,,1.3436127799669508,11.944454,5318482.0942032235,4000000.0,4.0
698,1,30,02:00:00,-13.9,,-19.2,,65,,25.0,,35,,16.1,,100.2,,,,-25.0,,,1.3464536416649462,9.722230000000001,2874112.390536864,2874112.390536864,2.874112390536864
699,1,30,03:00:00,-13.6,,-18.7,,66,,24.0,,37,,16.1,,100.2,,,,-25.0,,,1.3448973477235115,10.277786,3391583.532831825,3391583.532831825,3.3915835328318247
700,1,30,04:00:00,-14.8,,-20.8,,61,,27.0,,34,,16.1,,100.12,,,,-26.0,,,1.3500654519471194,9.444452,2641799.074093661,2641799.074093661,2.6417990740936608
701,1,30,05:00:00,-15.3,,-21.4,,60,,25.0,,32,,16.1,,100.08,,,,-27.0,,,1.3521429550707338,8.888896,2205874.261749296,2205874.261749296,2.205874261749296
702,1,30,06:00:00,-15.9,,-21.6,,62,,26.0,,32,,16.1,,100.01,,,,-28.0,,,1.3543486919738656,8.888896,2209472.6817570045,2209472.6817570045,2.2094726817570045
703,1,30,07:00:00,-16.2,,-21.4,,65,,25.0,,34,,16.1,,100.03,,,,-28.0,,,1.3562011102667901,9.444452,2653805.289380841,2653805.289380841,2.653805289380841
704,1,30,08:00:00,-17.1,,-22.0,,66,,26.0,,32,,16.1,,100.06,,,,-29.0,,,1.3613762417192499,8.888896,2220937.3653160706,2220937.3653160706,2.2209373653160704
705,1,30,09:00:00,-16.9,,-21.9,,66,,25.0,,30,,16.1,,100.12,,,,-29.0,,,1.3611294029679541,8.333340000000002,1829664.1912086534,1829664.1912086534,1.8296641912086533
706,1,30,10:00:00,-16.3,,-21.5,,65,,26.0,,34,,16.1,,100.15,,,,-28.0,,,1.358356709829474,9.444452,2658023.3522314993,2658023.3522314993,2.658023352231499
707,1,30,11:00:00,-16.0,,-20.8,,67,,26.0,,45,,16.1,,100.23,,,,-29.0,,,1.3578557962698794,12.500010000000001,6160265.079293334,4000000.0,4.0
708,1,30,12:00:00,-16.0,,-21.0,,66,,25.0,,46,,9.7,,100.31,,,,-30.0,,"Haze,Blowing Snow",1.3589395881854895,12.777788000000001,6585395.373899796,4000000.0,4.0
709,1,30,13:00:00,-15.5,,-21.6,,60,,25.0,,46,,11.3,,100.36,,,,-29.0,,,1.3569784621922591,12.777788000000001,6575891.79467101,4000000.0,4.0
710,1,30,14:00:00,-15.4,,-21.9,,58,,23.0,,46,,8.1,,100.44,,,,-29.0,,"Haze,Blowing Snow",1.3575332604265167,12.777788000000001,6578580.3363524005,4000000.0,4.0
711,1,30,15:00:00,-15.7,,-21.8,,60,,25.0,,43,,4.8,,100.55,,,,-29.0,,"Haze,Blowing Snow",1.3606036371147638,11.944454,5385737.758076881,4000000.0,4.0
712,1,30,16:00:00,-16.2,,-22.3,,60,,25.0,,50,,4.0,,100.65,,,,-30.0,,"Snow,Blowing Snow",1.3646070353729125,13.888900000000001,8492309.776287224,4000000.0,4.0
713,1,30,17:00:00,-16.4,,-21.9,,63,,25.0,,41,,8.1,,100.73,,,,-29.0,,Snow,1.3667555007991,11.388898000000001,4689759.904626615,4000000.0,4.0
714,1,30,18:00:00,-16.9,,-21.0,,71,,24.0,,54,,4.8,,100.78,,,,-32.0,,Snow,1.37010208980334,15.000012000000002,10740943.123572981,4000000.0,4.0
715,1,30,19:00:00,-17.3,,-20.9,,74,,24.0,,54,,2.8,,100.88,,,,-32.0,,"Snow,Blowing Snow",1.373605752886378,15.000012000000002,10768410.16137925,4000000.0,4.0
716,1,30,20:00:00,-18.3,,-21.9,,74,,25.0,,55,,4.8,,100.93,,,,-34.0,,Snow,1.3796790957736582,15.277790000000001,11428108.665245088,4000000.0,4.0
717,1,30,21:00:00,-18.6,,-22.5,,72,,24.0,,61,,3.2,,100.97,,,,-35.0,,"Snow,Blowing Snow",1.3818525480395454,16.944458,15615626.662797967,4000000.0,4.0
718,1,30,22:00:00,-19.1,,-23.0,,72,,25.0,,55,,9.7,,100.95,,,,-35.0,,Snow,1.3842979406836902,15.277790000000001,11466367.316623844,4000000.0,4.0
719,1,30,23:00:00,-19.5,,-23.8,,69,,25.0,,48,,16.1,,100.95,,,,-34.0,,,1.3864809455182003,13.333344,7633888.742836337,4000000.0,4.0
720,1,31,00:00:00,-19.6,,-23.9,,69,,26.0,,45,,16.1,,100.99,,,,-34.0,,,1.3875773629510593,12.500010000000001,6295104.677011243,4000000.0,4.0
721,1,31,01:00:00,-20.1,,-24.3,,70,,26.0,,50,,16.1,,100.96,,,,-36.0,,,1.3899060619129773,13.888900000000001,8649752.296256376,4000000.0,4.0
722,1,31,02:00:00,-19.7,,-23.5,,72,,26.0,,48,,16.1,,100.99,,,,-35.0,,,1.3881248387304836,13.333344,7642939.929531862,4000000.0,4.0
723,1,31,03:00:00,-19.9,,-23.9,,71,,27.0,,50,,16.1,,101.03,,,,-35.0,,,1.3897713284177322,13.888900000000001,8648913.814151853,4000000.0,4.0
724,1,31,04:00:00,-20.0,,-23.8,,72,,27.0,,41,,16.1,,101.06,,,,-34.0,,,1.3907331634641629,11.388898000000001,4772034.664748327,4000000.0,4.0
725,1,31,05:00:00,-19.5,,-23.2,,73,,27.0,,39,,16.1,,101.15,,,,-33.0,,,1.3892278121759878,10.833342000000002,4102754.202276511,4000000.0,4.0
726,1,31,06:00:00,-18.6,,-22.6,,71,,27.0,,39,,16.1,,101.2,,,,-32.0,,,1.3850002759394078,10.833342000000002,4090269.178648358,4000000.0,4.0
727,1,31,07:00:00,-17.2,,-21.3,,71,,26.0,,41,,16.1,,101.23,,,,-31.0,,,1.3778329034949734,11.388898000000001,4727769.891767795,4000000.0,4.0
728,1,31,08:00:00,-18.2,,-21.6,,75,,26.0,,43,,16.1,,101.33,,,,-32.0,,,1.384603659593694,11.944454,5480738.112135587,4000000.0,4.0
729,1,31,09:00:00,-17.8,,-21.2,,75,,25.0,,35,,16.1,,101.41,,,,-30.0,,,1.383526141000632,9.722230000000001,2953246.5889910418,2953246.5889910418,2.9532465889910418
730,1,31,10:00:00,-17.2,,-20.6,,75,,25.0,,37,,16.1,,101.49,,,,-30.0,,,1.381371741338584,10.277786,3483565.2390671005,3483565.2390671005,3.4835652390671004
731,1,31,11:00:00,-15.1,,-19.4,,70,,25.0,,35,,16.1,,101.55,,,,-27.0,,,1.3709402054405537,9.722230000000001,2926380.908494987,2926380.908494987,2.926380908494987
732,1,31,12:00:00,-14.4,,-19.6,,65,,26.0,,43,,16.1,,101.52,,,,-27.0,,,1.3668274728686867,11.944454,5410373.843344925,4000000.0,4.0
733,1,31,13:00:00,-13.7,,-19.8,,61,,25.0,,45,,16.1,,101.49,,,,-26.0,,,1.3627369327254213,12.500010000000001,6182409.6211047275,4000000.0,4.0
734,1,31,14:00:00,-13.1,,-19.9,,57,,25.0,,39,,16.1,,101.48,,,,-25.0,,,1.359458796613048,10.833342000000002,4014838.489224969,4000000.0,4.0
735,1,31,15:00:00,-13.1,,-19.5,,59,,25.0,,43,,16.1,,101.51,,,,-25.0,,,1.3598606862848888,11.944454,5382796.902836086,4000000.0,4.0
736,1,31,16:00:00,-13.8,,-19.8,,61,,24.0,,43,,16.1,,101.58,,,,-26.0,,,1.36447129910583,11.944454,5401047.296176408,4000000.0,4.0
737,1,31,17:00:00,-14.2,,-19.4,,65,,24.0,,39,,16.1,,101.63,,,,-26.0,,,1.3672516590269703,10.833342000000002,4037852.8564412454,4000000.0,4.0
738,1,31,18:00:00,-14.6,,-20.6,,61,,25.0,,41,,16.1,,101.72,,,,-27.0,,,1.370579583571922,11.388898000000001,4702881.512733895,4000000.0,4.0
739,1,31,19:00:00,-14.9,,-20.9,,61,,25.0,,34,,16.1,,101.79,,,,-27.0,,,1.3731160166010925,9.444452,2686904.2653067075,2686904.2653067075,2.6869042653067075
740,1,31,20:00:00,-15.1,,-20.3,,65,,24.0,,41,,16.1,,101.79,,,,-28.0,,,1.3741802413766024,11.388898000000001,4715236.480826432,4000000.0,4.0
741,1,31,21:00:00,-15.4,,-20.4,,66,,25.0,,43,,16.1,,101.82,,,,-28.0,,,1.3761851511014331,11.944454,5447414.7563715195,4000000.0,4.0
742,1,31,22:00:00,-16.0,,-20.8,,67,,26.0,,37,,16.1,,101.84,,,,-28.0,,,1.3796671085715306,10.277786,3479266.4690293353,3479266.4690293353,3.4792664690293353
743,1,31,23:00:00,-16.5,,-21.1,,68,,26.0,,37,,16.1,,101.81,,,,-29.0,,,1.3819477325540892,10.277786,3485017.7828801055,3485017.7828801055,3.4850177828801057
